OrganisationName,Address1,Address2,Address3,City,County,Postcode,Latitude,Longitude,ParentName,Website
North Somerset Community Hospital,North Somerset Community Hospital,Old Street,,Clevedon,Avon,BS21 6BS,51.43719482,-2.847192764,North Somerset Community Partnership Community Interest Company,http://www.nscphealth.co.uk
Ludlow Community Hospital,,Gravel Hill,,Ludlow,Shropshire,SY8 1QX,52.37365723,-2.714434147,Shropshire Community Health NHS Trust,http://www.shropscommunityhealth.nhs.uk
Bridgnorth Hospital,,Northgate,,Bridgnorth,Shropshire,WV16 4EU,52.53790283,-2.421488047,Shropshire Community Health NHS Trust,http://www.shropscommunityhealth.nhs.uk
Bishop's Castle Community Hospital,Union Street,,,Bishop's Castle,Shropshire,SY9 5AJ,52.4930954,-2.999591112,Shropshire Community Health NHS Trust,http://www.shropscommunityhealth.nhs.uk
Whitchurch Community Hospital,,Claypit Street,,Whitchurch,Shropshire,SY13 1NT,52.97274017,-2.679201841,Shropshire Community Health NHS Trust,http://www.shropscommunityhealth.nhs.uk
The Royal London Hospital,,Whitechapel Road,Whitechapel,London,,E1 1BZ,51.51903534,-0.059213318,Barts Health NHS Trust,http://www.bartshealth.nhs.uk/
Mile End Hospital,Bancroft Road,,,London,,E1 4DG,51.5250473,-0.04219196,Barts Health NHS Trust,http://www.bartshealth.nhs.uk
The London Chest Hospital,Bonner Road,,,London,,E2 9JX,51.5321846,-0.049484201,Barts Health NHS Trust,http://www.bartshealth.nhs.uk
Whipps Cross University Hospital,Whipps Cross Road,,,London,,E11 1NR,51.57883072,0.002652787,Barts Health NHS Trust,http://www.bartshealth.nhs.uk/
St Bartholomew's Hospital,West Smithfield,,,London,,EC1A 7BE,51.51774979,-0.10038992,Barts Health NHS Trust,http://www.bartshealth.nhs.uk/
Newham General Hospital,Glen Road,Plaistow,,London,,E13 8SL,51.52277756,0.034731604,Barts Health NHS Trust,http://www.bartshealth.nhs.uk
Royal Surrey County Hospital,Royal Surrey County Hospital,Egerton Road,,Guildford,Surrey,GU2 7XX,51.24101639,-0.60744828,Royal Surrey County NHS Foundation Trust,http://www.royalsurrey.nhs.uk
Weston General Hospital,,Grange Road,Uphill,Weston-Super-Mare,,BS23 4TQ,51.32234192,-2.971384764,Weston Area Health NHS Trust,http://www.waht.nhs.uk
Yeovil District Hospital,Higher Kingston,,,Yeovil,Somerset,BA21 4AT,50.94484711,-2.634698391,Yeovil District Hospital NHS Foundation Trust,http://www.yeovilhospital.nhs.uk/
Bristol Royal Infirmary,Marlborough Street,,,Bristol,Avon,BS2 8HW,51.45915985,-2.594771147,University Hospitals Bristol NHS Foundation Trust,http://www.uhbristol.nhs.uk/your-hospitals/bristol-royal-infirmary.html
St Michael's Hospital,Southwell Street,,,Bristol,Avon,BS2 8EG,51.45913696,-2.599376917,University Hospitals Bristol NHS Foundation Trust,http://www.uhbristol.nhs.uk/your-hospitals/st-michaels-hospital.html
Bristol Eye Hospital,Lower Maudlin Street,,,Bristol,Avon,BS1 2LX,51.45843887,-2.594531536,University Hospitals Bristol NHS Foundation Trust,http://www.uhbristol.nhs.uk/your-hospitals/bristol-eye-hospital.html
University Of Bristol Dental Hospital,Lower Maudlin Street,,,Bristol,Avon,BS1 2LY,51.45861816,-2.595181704,University Hospitals Bristol NHS Foundation Trust,http://www.uhbristol.nhs.uk/your-hospitals/university-of-bristol-dental-hospital.html
Bristol Royal Hospital For Children,Upper Maudlin Street,,,Bristol,Avon,BS2 8BJ,51.45775223,-2.597314835,University Hospitals Bristol NHS Foundation Trust,http://www.uhbristol.nhs.uk/your-hospitals/bristol-royal-hospital-for-children.html
South Bristol Community Hospital,South Bristol NHS Community Hospital,Hengrove Promenade,,Bristol,,BS14 0DB,51.41099548,-2.584929228,University Hospitals Bristol NHS Foundation Trust,http://www.uhbristol.nhs.uk/patients-and-visitors/your-hospitals/south-bristol-community-hospital/
Torbay Hospital,Lowes Bridge,,,Torquay,Devon,TQ2 7AA,50.48232269,-3.553790569,Torbay and South Devon NHS Foundation Trust,http://www.torbayandsouthdevon.nhs.uk/
Brixham Hospital - Torbay and South Devon NHS Foundation Trust,Greenswood Road,,,Brixham,Devon,TQ5 9HW,50.38945007,-3.513809919,Torbay and South Devon NHS Foundation Trust,
Dawlish Hospital - Torbay and South Devon NHS Foundation Trust,Barton Terrace,,,Dawlish,Devon,EX7 9DH,50.58058929,-3.474774122,Torbay and South Devon NHS Foundation Trust,
Newton Abbot Community Hospital - Torbay and South Devon NHS Foundation Trust,Jetty Marsh Road,,,Newton Abbot,Devon,TQ12 2TS,50.53936386,-3.612241745,Torbay and South Devon NHS Foundation Trust,
Paignton Health and Welllbeing Centre,Church Street,,,Paignton,Devon,TQ3 3AG,50.43714523,-3.568786621,Torbay and South Devon NHS Foundation Trust,https://www.torbayandsouthdevon.nhs.uk/visiting-us/paignton-health-and-wellbeing-centre/
Teignmouth Hospital,Mill Lane,,,Teignmouth,Devon,TQ14 9BQ,50.54837418,-3.511145592,Torbay and South Devon NHS Foundation Trust,
Totnes Hospital - Torbay and South Devon NHS Foundation Trust,Coronation Road,,,Totnes,Devon,TQ9 5GH,50.4327774,-3.68417573,Torbay and South Devon NHS Foundation Trust,
Bradford Royal Infirmary,,Duckworth Lane,,Bradford,West Yorkshire,BD9 6RJ,53.8059845,-1.794681668,Bradford Teaching Hospitals NHS Foundation Trust,http://www.bradfordhospitals.nhs.uk
St Lukes Hospital,,Little Horton Lane,,Bradford,West Yorkshire,BD5 0NA,53.78348541,-1.760977983,Bradford Teaching Hospitals NHS Foundation Trust,http://www.bradfordhospitals.nhs.uk
Shipley Hospital,,98 Kirkgate,,Shipley,West Yorkshire,BD18 3LT,53.83343506,-1.786266565,Bradford Teaching Hospitals NHS Foundation Trust,
Eccleshill Community Hospital,,450 Harrogate Road,Eccleshill,Bradford,West Yorkshire,BD10 0JE,53.82361984,-1.712381363,Bradford Teaching Hospitals NHS Foundation Trust,
Southend Hospital,,Prittlewell Chase,,Westcliff-on-Sea,Essex,SS0 0RY,51.55383682,0.688631773,Southend University Hospital NHS Foundation Trust,http://www.southend.nhs.uk
Brentwood Community Hospital,"Crescent Drive, Shenfield",,,Brentwood,Essex,CM15 8DR,51.62342834,0.316654414,Southend University Hospital NHS Foundation Trust,
Royal Free Hospital,,Pond Street,,London,,NW3 2QG,51.55322266,-0.165309235,Royal Free London NHS Foundation Trust,http://www.royalfree.nhs.uk/
The Royal National Orthopaedic Hospital (Stanmore),Brockley Hill,,,Stanmore,Middlesex,HA7 4LP,51.63256454,-0.31042096,Royal National Orthopaedic Hospital NHS Trust,http://www.rnoh.nhs.uk/index.htm
Royal National Orthopaedic Hospital (Bolsover Street),45-51 Bolsover Street,,,London,Greater London,W1W 5AQ,51.52331161,-0.143274531,Royal National Orthopaedic Hospital NHS Trust,http://www.rnoh.nhs.uk/
North Middlesex University Hospital,,Sterling Way,,London,,N18 1QX,51.61309433,-0.07373514,North Middlesex University Hospital NHS Trust,http://www.northmid.nhs.uk
Hillingdon Hospital,,Pield Heath Road,,Uxbridge,Middlesex,UB8 3NN,51.52607727,-0.461160362,The Hillingdon Hospitals NHS Foundation Trust,https://www.thh.nhs.uk
Mount Vernon Hospital,Rickmansworth Road,Rickmansworth Road,,Northwood,Middlesex,HA6 2RN,51.61492538,-0.445808202,The Hillingdon Hospitals NHS Foundation Trust,http://www.thh.nhs.uk
Kingston Hospital,Galsworthy Road,,,Kingston Upon Thames,Surrey,KT2 7QB,51.41428375,-0.283075601,Kingston Hospital NHS Foundation Trust,http://www.kingstonhospital.nhs.uk/
Musgrove Park Hospital,Musgrove Park Hospital,,,Taunton,Somerset,TA1 5DA,51.01196671,-3.119636059,Taunton and Somerset NHS Foundation Trust,http://www.musgroveparkhospital.nhs.uk
Dorset County Hospital,Williams Avenue,,,Dorchester,Dorset,DT1 2JY,50.71294403,-2.446922541,Dorset County Hospital NHS Foundation Trust,http://www.dchft.nhs.uk
Manor Hospital,,Moat Road,,Walsall,,WS2 9PS,52.58233261,-1.998909116,Walsall Healthcare NHS Trust,http://www.walsallhealthcare.nhs.uk
Victoria Central Hospital,Mill Lane,,,Wallasey,Merseyside,CH44 5UF,53.41566086,-3.045850515,Wirral University Teaching Hospital NHS Foundation Trust,http://www.wuth.nhs.uk
Arrowe Park Hospital,Arrowe Park Road,,Upton,Wirral,Merseyside,CH49 5PE,53.36962891,-3.096800804,Wirral University Teaching Hospital NHS Foundation Trust,http://www.wuth.nhs.uk
Clatterbridge Hospital,Clatterbridge Road,,Bebington,Wirral,Merseyside,CH63 4JY,53.33288956,-3.024122,Wirral University Teaching Hospital NHS Foundation Trust,http://www.wuth.nhs.uk
Whiston Hospital,Warrington Road,,,Prescot,Merseyside,L35 5DR,53.42047501,-2.784939051,St Helens and Knowsley Hospitals NHS Trust,http://www.sthk.nhs.uk
St Helens Hospital,Marshalls Cross Road,,,St. Helens,Merseyside,WA9 3DA,53.43953323,-2.718886852,St Helens and Knowsley Hospitals NHS Trust,http://www.sthk.nhs.uk
Liverpool Heart and Chest Hospital,,Thomas Drive,,Liverpool,,L14 3PE,53.4111557,-2.89797473,Liverpool Heart and Chest NHS Foundation Trust,http://www.lhch.nhs.uk
Alder Hey Children's NHS Foundation Trust,Alder Hey Children's Hospital,Eaton Road,,Liverpool,,L12 2AP,53.41930389,-2.897731543,Alder Hey Children's NHS Foundation Trust,http://www.alderhey.nhs.uk
Leighton Hospital,Leighton Hospital,Middlewich Road,,Crewe,Cheshire,CW1 4QJ,53.11769104,-2.475848436,Mid Cheshire Hospitals NHS Foundation Trust,http://www.mchft.nhs.uk
Victoria Infirmary (Northwich),Winnington Hill,Winnington Hill,,Northwich,Cheshire,CW8 1AW,53.26189423,-2.519784451,Mid Cheshire Hospitals NHS Foundation Trust,http://www.mcht.nhs.uk
The Christie main site,550 Wilmslow Road,Withington,,Manchester,Greater Manchester,M20 4BX,53.42977142,-2.230110168,The Christie NHS Foundation Trust,http://www.christie.nhs.uk/
North Devon District Hospital,Raleigh Park,,,Barnstaple,Devon,EX31 4JB,51.09217453,-4.0504179,Northern Devon Healthcare NHS Trust,http://www.northdevonhealth.nhs.uk
Ilfracombe Tyrrell Hospital,,St. Brannocks Park Road,,Ilfracombe,Devon,EX34 8JF,51.20452118,-4.124407291,Northern Devon Healthcare NHS Trust,http://www.northdevonhealth.nhs.uk/services/community/ilfracombe-tyrrell-hospital/
Holsworthy Hospital,Dobles Lane,,,Holsworthy,Devon,EX22 6JQ,50.81832886,-4.349647999,Northern Devon Healthcare NHS Trust,http://www.northdevonhealth.nhs.uk/services/community/holsworthy-hospital/
Bideford Hospital,,Abbotsham Road,,Bideford,Devon,EX39 3AG,51.01793671,-4.212493896,Northern Devon Healthcare NHS Trust,http://www.northdevonhealth.nhs.uk/services/community/bideford-hospital/
Torrington Hospital,Calf Street,,,Torrington,Devon,EX38 7BJ,50.9547348,-4.136956215,Northern Devon Healthcare NHS Trust,http://www.northdevonhealth.nhs.uk/services/community/torrington/
South Molton Hospital,Widgery Drive,,,South Molton,Devon,EX36 4DP,51.01707077,-3.839224815,Northern Devon Healthcare NHS Trust,http://www.northdevonhealth.nhs.uk/services/community/south-molton-hospital/
Bedford Hospital South Wing,South Wing,Kempston Road,,Bedford,Bedfordshire,MK42 9DJ,52.12826538,-0.472480506,Bedford Hospital NHS Trust,http://www.bedfordhospital.nhs.uk/index.asp
Bedford Hospital North Wing,32-34 Kimbolton Road,,,Bedford,Bedfordshire,MK40 2NS,52.14118958,-0.46176514,Bedford Hospital NHS Trust,http://www.bedfordhospital.nhs.uk/index.asp
Luton and Dunstable Hospital,,Lewsey Road,,Luton,Bedfordshire,LU4 0DZ,51.89540482,-0.476029515,Luton and Dunstable University Hospital NHS Foundation Trust,https://www.ldh.nhs.uk/
St Monicas Hospital,Long Street,Easingwold,,York,North Yorkshire,YO61 3JD,54.11840439,-1.189312696,York Teaching Hospital NHS Foundation Trust,
The New Selby War Memorial Hospital,Doncaster Road,,,Selby,North Yorkshire,YO8 9BX,53.77748871,-1.078320146,York Teaching Hospital NHS Foundation Trust,
The York Hospital,The York Hospital,Wigginton Road,,York,North Yorkshire,YO31 8HE,53.96895218,-1.084269643,York Teaching Hospital NHS Foundation Trust,http://www.york.nhs.uk
"Malton, Norton & District Hospital",,Middlecave Road,,Malton,North Yorkshire,YO17 7NG,54.13724518,-0.806531847,York Teaching Hospital NHS Foundation Trust,http://www.york.nhs.uk
White Cross Rehabilitation Hospital,White Cross Road,Wilson Drive,Huntington Road,York,North Yorkshire,YO31 8JR,53.97163391,-1.076374769,York Teaching Hospital NHS Foundation Trust,
St Helens Rehabilitation Hospital,1a Nelsons Lane,,,York,North Yorkshire,YO24 1HD,53.94363022,-1.106458187,York Teaching Hospital NHS Foundation Trust,
Harrogate District Hospital,Lancaster Park Road,,,Harrogate,North Yorkshire,HG2 7SX,53.99380875,-1.517558336,Harrogate and District NHS Foundation Trust,http://www.hdft.nhs.uk/
Ripon and District Community Hospital,Firby Lane,,,Ripon,North Yorkshire,HG4 2PR,54.13543701,-1.52717948,Harrogate and District NHS Foundation Trust,http://www.hdft.nhs.uk
Airedale General Hospital,Skipton Road,Steeton,,Keighley,West Yorkshire,BD20 6TD,53.89801788,-1.962679625,Airedale NHS Foundation Trust,http://www.airedale-trust.nhs.uk/
Castleberg Hospital,Raines Road,Giggleswick,,Settle,North Yorkshire,BD24 0BN,54.06954956,-2.292192698,Airedale NHS Foundation Trust,http://www.airedale-trust.nhs.uk/
Skipton General Hospital,Keighley Road,,,Skipton,North Yorkshire,BD23 2RJ,53.95569611,-2.018997669,Airedale NHS Foundation Trust,http://www.airedale-trust.nhs.uk/
Sheffield Children's Hospital,Western Bank,,,Sheffield,South Yorkshire,S10 2TH,53.38060379,-1.490613818,Sheffield Children's NHS Foundation Trust,http://www.sheffieldchildrens.nhs.uk/
The Queen Elizabeth Hospital,Gayton Road,,,King's Lynn,Norfolk,PE30 4ET,52.75677109,0.446998805,"The Queen Elizabeth Hospital, King's Lynn. NHS Foundation Trust",http://www.qehkl.nhs.uk
Paulton Hospital,Salisbury Road,Paulton,,Bristol,Avon,BS39 7SB,51.29867935,-2.493281364,Royal United Hospitals Bath NHS Foundation Trust,
Royal United Hospital,Combe Park,,,Bath,Avon,BA1 3NG,51.39167023,-2.39120388,Royal United Hospitals Bath NHS Foundation Trust,http://www.ruh.nhs.uk/
Poole Hospital,Longfleet Road,,,Poole,Dorset,BH15 2JB,50.72199249,-1.973102927,Poole Hospital NHS Foundation Trust,http://www.poole.nhs.uk/
Milton Keynes Hospital,Standing Way,Eaglestone,,Milton Keynes,Buckinghamshire,MK6 5LD,52.02637482,-0.735781133,Milton Keynes University Hospital NHS Foundation Trust,http://www.mkhospital.nhs.uk
Basildon Hospital - Dermatology Canvey Island,Canvey Island Long Road Clinic,Long Road,,Canvey Island,Essex,SS8 0JA,51.52022171,0.591000795,Basildon and Thurrock University Hospitals NHS Foundation Trust,
Basildon Hospital - Dermatology Benfleet,Tyrells Health Centre,Seamore Avenue,,Benfleet,Essex,SS7 4EX,51.57055283,0.553597927,Basildon and Thurrock University Hospitals NHS Foundation Trust,
Basildon University Hospital,Nethermayne,,,Basildon,Essex,SS16 5NL,51.55767441,0.450571179,Basildon and Thurrock University Hospitals NHS Foundation Trust,http://www.basildonandthurrock.nhs.uk/
Orsett Hospital,Rowley Road,Orsett,,Grays,Essex,RM16 3EU,51.50949478,0.366296917,Basildon and Thurrock University Hospitals NHS Foundation Trust,http://www.basildonandthurrock.nhs.uk/
Colchester General Hospital,Turner Road,,,Colchester,Essex,CO4 5JL,51.91016388,0.899196804,Colchester Hospital University NHS Foundation Trust,http://www.colchesterhospital.nhs.uk
Essex County Hospital,Lexden Road,,,Colchester,Essex,CO3 3NB,51.8870697,0.889149308,Colchester Hospital University NHS Foundation Trust,http://www.colchesterhospital.nhs.uk
Bognor Regis War Memorial Hospital,Bognor Regis War Memorial Hospital,Shripney Road,,Bognor Regis,,PO22 9PP,50.79336548,-0.675404251,Sussex Community NHS Foundation Trust,http://www.sussexcommunity.nhs.uk/services/locations/bognor_regis_hospital.htm
Frimley Park Hospital,Portsmouth Road,,,Camberley,Surrey,GU16 7UJ,51.31966782,-0.742014408,Frimley Health NHS Foundation Trust,http://www.frimleypark.nhs.uk/
St Ann's Hospital,,69 Haven Road,Canford Cliffs,Poole,Dorset,BH13 7LN,50.69874191,-1.9272542,Dorset Healthcare University NHS Foundation Trust,http://www.dorsethealthcare.nhs.uk
Nightingale House/Court/Florence House,Alumhurst Road,49 Alumhurst Road,,Bournemouth,Dorset,BH4 8EW,50.71672821,-1.904407144,Dorset Healthcare University NHS Foundation Trust,http://www.dorsethealthcare.nhs.uk
Alderney Hospital,Ringwood Road,Parkstone,,Poole,Dorset,BH12 4NB,50.7486763,-1.940075755,Dorset Healthcare University NHS Foundation Trust,http://www.dorsethealthcare.nhs.uk
Kimmeridge Court,,69 Haven Road,Canford Cliffs,Poole,,BH13 7LN,50.69874191,-1.9272542,Dorset Healthcare University NHS Foundation Trust,http://www.dorsethealthcare.nhs.uk
Fairmile House,,Jumpers Road,,Christchurch,Dorset,BH23 2JT,50.74319458,-1.792006493,Dorset Healthcare University NHS Foundation Trust,http://www.dorsethealthcare.nhs.uk
Pebble Lodge,49 Alumhurst Road,Westbourne,,Bournemouth,Dorset,BH4 8EW,50.71672821,-1.904407144,Dorset Healthcare University NHS Foundation Trust,http://www.wheresyourheadat.co.uk
Oakcroft,,42 Gravel Hill,,Wimborne,Dorset,BH21 1RR,50.78026581,-1.97830379,Dorset Healthcare University NHS Foundation Trust,http://www.wheresyourheadat.co.uk
Weymouth Community Hospital,,Melcombe Avenue,,Weymouth,Dorset,DT4 7TB,50.62104034,-2.450997829,Dorset Healthcare University NHS Foundation Trust,http://www.dorsethealthcare.nhs.uk
Westhaven Hospital,,Radipole Lane,,Weymouth,Dorset,DT4 0QE,50.615242,-2.480030775,Dorset Healthcare University NHS Foundation Trust,http://www.dorsethealthcare.nhs.uk
Portland Hospital,,Castle Road,Castletown,Portland,Dorset,DT5 1AX,50.5658226,-2.444808483,Dorset Healthcare University NHS Foundation Trust,http://www.dorsethealthcare.nhs.uk
Bridport Community Hospital,,Hospital Lane,North Allington,Bridport,Dorset,DT6 5DR,50.74161148,-2.769914389,Dorset Healthcare University NHS Foundation Trust,http://www.dorsethealthcare.nhs.uk
Blandford Community Hospital,,Milldown Road,,Blandford Forum,Dorset,DT11 7DD,50.86307526,-2.167970181,Dorset Healthcare University NHS Foundation Trust,http://www.dorsethealthcare.nhs.uk
Westminster Memorial Hospital,,Abbey Walk,,Shaftesbury,Dorset,SP7 8BD,51.00472641,-2.200136185,Dorset Healthcare University NHS Foundation Trust,http://www.dorsethealthcare.nhs.uk
Yeatman Hospital,,Hospital Lane,,Sherborne,Dorset,DT9 3JU,50.94966888,-2.519826412,Dorset Healthcare University NHS Foundation Trust,http://www.dorsethealthcare.nhs.uk
Wareham Community Hospital,,Streche Road,,Wareham,Dorset,BH20 4QQ,50.68698883,-2.116732836,Dorset Healthcare University NHS Foundation Trust,http://www.dorsethealthcare.nhs.uk
Victoria Hospital,Victoria Hospital,Victoria Road,,Wimborne,Dorset,BH21 1ER,50.80220032,-1.995904088,Dorset Healthcare University NHS Foundation Trust,http://www.dorsethealthcare.nhs.uk
Swanage Community Hospital,,Queens Road,,Swanage,Dorset,BH19 2ES,50.60551453,-1.961199522,Dorset Healthcare University NHS Foundation Trust,http://www.dorsethealthcare.nhs.uk
St Leonards Community Hospital (Dorset),,Ringwood Road,,Ringwood,Dorset,BH24 2RR,50.81726456,-1.856563926,Dorset Healthcare University NHS Foundation Trust,http://www.dorsethealthcare.nhs.uk
Christchurch Hospital,Fairmile Road,,,Christchurch,Dorset,BH23 2JX,50.74516678,-1.790141106,The Royal Bournemouth and Christchurch Hospitals NHS Foundation Trust,http://www.rbch.nhs.uk
Royal Bournemouth General Hospital,Castle Lane East,,,Bournemouth,Dorset,BH7 7DW,50.74748611,-1.820505619,The Royal Bournemouth and Christchurch Hospitals NHS Foundation Trust,http://www.rbch.nhs.uk/
Elmville Unit at Monkton Hall,Monkton Village,Monkton Hall Hospital,,Jarrow,Tyne and Wear,NE32 5NN,54.96662521,-1.501260161,South Tyneside NHS Foundation Trust,
South Tyneside District Hospital,Harton Lane,,,South Shields,Tyne and Wear,NE34 0PL,54.97197342,-1.42821002,South Tyneside NHS Foundation Trust,http://www.stft.nhs.uk/
Primrose Hill Hospital,Primrose Terrace,,,Jarrow,Tyne and Wear,NE32 5HA,54.967659,-1.485705614,South Tyneside NHS Foundation Trust,http://www.sthct.nhs.uk/
Palmer Community Hospital,Wear Street,,,Jarrow,Tyne and Wear,NE32 3UX,54.98065948,-1.49196136,South Tyneside NHS Foundation Trust,http://www.stft.nhs.uk/
West Cornwall Hospital (Penzance),St Clare Street,,,Penzance,Cornwall,TR18 2PF,50.1220665,-5.542964458,Royal Cornwall Hospitals NHS Trust,http://www.royalcornwall.nhs.uk
St Michael's Hospital,Trelissick Road,,,Hayle,Cornwall,TR27 4JA,50.1803627,-5.42441082,Royal Cornwall Hospitals NHS Trust,http://www.royalcornwall.nhs.uk
Royal Cornwall Hospital (Treliske),Treliske,,,Truro,Cornwall,TR1 3LQ,50.26654053,-5.094248295,Royal Cornwall Hospitals NHS Trust,http://www.royalcornwall.nhs.uk
Aintree University Hospital,Aintree University Hospital,Lower Lane,,Liverpool,Merseyside,L9 7AL,53.46632767,-2.931089401,Aintree University Hospital NHS Foundation Trust,http://www.aintreehospital.nhs.uk
Liverpool Women's NHS Foundation Trust,,Crown Street,,Liverpool,,L8 7SS,53.3984642,-2.960062504,Liverpool Women's NHS Foundation Trust,http://www.liverpoolwomens.nhs.uk/
The Walton Centre ,Lower Lane,Fazakerley,,Liverpool,Merseyside,L9 7LJ,53.46640015,-2.930985451,The Walton Centre NHS Foundation Trust,http://www.thewaltoncentre.nhs.uk
King George Hospital,,Barley Lane,,Ilford,Essex,IG3 8YB,51.58054352,0.112121284,"Barking, Havering and Redbridge University Hospitals NHS Trust",http://www.bhrhospitals.nhs.uk/
Queen's Hospital,Rom Valley Way,,,Romford,Essex,RM7 0AG,51.56942749,0.180405304,"Barking, Havering and Redbridge University Hospitals NHS Trust",http://www.bhrhospitals.nhs.uk
Barnsley Hospital,,,Gawber Road,Barnsley,Yorkshire,S75 2EP,53.55913544,-1.499477983,Barnsley Hospital NHS Foundation Trust,http://www.barnsleyhospital.nhs.uk
Rotherham Hospital,,Moorgate Road,,Rotherham,,S60 2UD,53.41397476,-1.342865467,The Rotherham NHS Foundation Trust,http://www.therotherhamft.nhs.uk
Chesterfield Royal Hospital,Calow,Top Road,,Chesterfield,Derbyshire,S44 5BL,53.2362175,-1.400036573,Chesterfield Royal Hospital NHS Foundation Trust,http://www.chesterfieldroyal.nhs.uk
The Mount,44 Hyde Terrace,,,Leeds,West Yorkshire,LS2 9LN,53.80408096,-1.558837056,Leeds and York Partnership NHS Foundation Trust,http://www.leedsandyorkpft.nhs.uk/
St Mary's Hospital,Green Hill Road,,,Leeds,West Yorkshire,LS12 3QE,53.79990768,-1.612384319,Leeds and York Partnership NHS Foundation Trust,http://www.leedsandyorkpft.nhs.uk/home
Newsam Centre,Seacroft Hospital,York Road,Seacroft,Leeds,West Yorkshire,LS14 6WB,53.80493927,-1.471471786,Leeds and York Partnership NHS Foundation Trust,http://www.leedsandyorkpft.nhs.uk/
Becklin Centre,Alma Street,,,Leeds,West Yorkshire,LS9 7BE,53.80526352,-1.524477124,Leeds and York Partnership NHS Foundation Trust,http://www.leedsandyorkpft.nhs.uk/home
Papworth Hospital,Papworth Hospital,Papworth Everard,,Cambridge,Cambridgeshire,CB23 3RE,52.24864197,-0.115571827,Papworth Hospital NHS Foundation Trust,http://www.papworthhospital.nhs.uk/content.php?/home/how_to_find_us
Stamford and Rutland Hospital,Ryhall Road,,,Stamford,Lincolnshire,PE9 1UA,52.65537262,-0.468735933,North West Anglia NHS Foundation Trust,http://www.peterboroughandstamford.nhs.uk
Peterborough City Hospital,Edith Cavell Campus,"Bretton Gate, Bretton",,Peterborough,Cambridgeshire,PE3 9GZ,52.58392334,-0.279370904,North West Anglia NHS Foundation Trust,https://www.nwangliaft.nhs.uk/
James Paget University Hospital,Lowestoft Road,Gorleston,,Great Yarmouth,Norfolk,NR31 6LA,52.5616684,1.717994452,James Paget University Hospitals NHS Foundation Trust,http://www.jpaget.nhs.uk/
The Ipswich Hospital,Heath Road,...,,Ipswich,Suffolk,IP4 5PD,52.05684662,1.197929144,Ipswich Hospital NHS Trust,http://www.ipswichhospital.nhs.uk/
West Suffolk Hospital,Hardwick Lane,Hardwick Lane,,Bury St. Edmunds,Suffolk,IP33 2QZ,52.23166275,0.70919019,West Suffolk NHS Foundation Trust,http://www.wsh.nhs.uk
Addenbrooke's,,Hills Road,,Cambridge,Cambridgeshire,CB2 0QQ,52.17513275,0.140753239,Cambridge University Hospitals NHS Foundation Trust,https://www.cuh.nhs.uk/addenbrookes-hospital
Rosie Hospital,,Robinson Way,,Cambridge,Cambridgeshire,CB2 0QQ,52.17326355,0.139422864,Cambridge University Hospitals NHS Foundation Trust,https://www.cuh.nhs.uk/rosie-hospital
Royston Hospital,London Road,,,Royston,Hertfordshire,SG8 9EN,52.04153061,-0.022399491,Cambridge University Hospitals NHS Foundation Trust,
Saffron Walden Community Hospital,Radwinter Road,,,Saffron Walden,Essex,CB11 3HY,52.02359009,0.256292522,Cambridge University Hospitals NHS Foundation Trust,
Wellington Community Hospital,,Bulford,,,,TA21 8QQ,50.97667694,-3.227399349,Somerset Partnership NHS Foundation Trust,
Chard  Community Hospital,,Crewkerne Road,,,,TA20 1NF,50.875,-2.952359438,Somerset Partnership NHS Foundation Trust,
Minehead Community Hospital,,Luttrell Way,,,,TA24 6DF,51.20011902,-3.461884022,Somerset Partnership NHS Foundation Trust,
Williton Community Hospital,,North Road,,,,TA4 4RA,51.1628952,-3.323194981,Somerset Partnership NHS Foundation Trust,
Shepton Mallet Community Hospital,,Bucklers Way,Old Wells Road,Shepton Mallet,Somerset,BA4 4PG,51.19057846,-2.562471867,Somerset Partnership NHS Foundation Trust,http://www.sompar.nhs.uk/our_services/adult_services/hospitals/shepton_mallet_hospital
West Mendip Community Hospital,,Old Wells Road,,,,BA6 8JD,51.16048431,-2.699217319,Somerset Partnership NHS Foundation Trust,
Crewkerne Community Hospital,,Middle Path,,,,TA18 8BG,50.88012314,-2.797923803,Somerset Partnership NHS Foundation Trust,
South Petherton Community Hospital,,Bernard Way,,,,TA13 5EF,50.95315933,-2.798263073,Somerset Partnership NHS Foundation Trust,
Wincanton Community Hospital,,Dancing Lane,,,,BA9 9DQ,51.05875778,-2.418154716,Somerset Partnership NHS Foundation Trust,
Dene Barton Community Hospital ,,Dene Road,,,,TA4 1DD,51.03759003,-3.182197571,Somerset Partnership NHS Foundation Trust,
Frome Community Hospital ,,Enos Way,,Frome,Somerset,BA11 2FH,51.23731995,-2.311554432,Somerset Partnership NHS Foundation Trust,http://www.sompar.nhs.uk/our_services/adult_services/hospitals/frome_hospital
Royal Devon and Exeter Hospital (Wonford),Barrack Road,,,Exeter,Devon,EX2 5DW,50.71670914,-3.506666422,Royal Devon and Exeter NHS Foundation Trust,http://www.rdehospital.nhs.uk/
Heavitree Hospital,Gladstone Road,,,Exeter,Devon,EX1 2ED,50.72439194,-3.514011145,Royal Devon and Exeter NHS Foundation Trust,www.rdehospital.nhs.uk
Okehampton Community Hospital,Cavell Way,.,,Okehampton,Devon,EX20 1PN,50.74192047,-3.99718833,Royal Devon and Exeter NHS Foundation Trust,
Ottery St Mary Hospital,Keegan Close,,,Ottery St Mary,Devon,EX11 1DN,50.75011826,-3.291560888,Royal Devon and Exeter NHS Foundation Trust,
Tiverton and District Hospital,Kennedy Way,.,,Tiverton,Devon,EX16 6NT,50.90941238,-3.492953062,Royal Devon and Exeter NHS Foundation Trust,
Honiton Hospital,Marlpits Lane,.,,Honiton,Devon,EX14 2DE,50.79493332,-3.186563015,Royal Devon and Exeter NHS Foundation Trust,
Axminster Hospital,Chard Street,,,Axminster,Devon,EX13 5DU,50.7838974,-2.996254683,Royal Devon and Exeter NHS Foundation Trust,
Exmouth Hospital,Claremont Grove,,,Exmouth,Devon,EX8 2JN,50.62055206,-3.401594639,Royal Devon and Exeter NHS Foundation Trust,
Victoria Hospital (Sidmouth),General Hospital,,,Sidmouth,Devon,EX10 8EW,50.68161392,-3.239641666,Royal Devon and Exeter NHS Foundation Trust,
Rampton Hospital,Rampton Hospital,,,Retford,Nottinghamshire,DN22 0PD,53.2903862,-0.838197649,Nottinghamshire Healthcare NHS Foundation Trust,http://www.nottinghamshirehealthcare.nhs.uk/rampton-hospital
Lings Bar Hospital,,Beckside,,,,NG2 6PR,52.92256546,-1.09980166,Nottinghamshire Healthcare NHS Foundation Trust,
Southampton General Hospital,,Tremona Road,,Southampton,Hampshire,SO16 6YD,50.93302155,-1.435089946,University Hospital Southampton NHS Foundation Trust,http://www.uhs.nhs.uk
Royal South Hants Hospital,,Brintons Terrace,,Southampton,Hampshire,SO14 0YG,50.91239166,-1.397062421,University Hospital Southampton NHS Foundation Trust,http://www.uhs.nhs.uk
Princess Anne Hospital,,Coxford Road,,Southampton,Hampshire,SO16 5YA,50.93526077,-1.434849381,University Hospital Southampton NHS Foundation Trust,http://www.uhs.nhs.uk
Charles Clifford Dental Hospital,76 Wellesley Road,,,Sheffield,South Yorkshire,S10 2SZ,53.37979889,-1.493765235,Sheffield Teaching Hospitals NHS Foundation Trust,http://www.sth.nhs.uk
Royal Hallamshire Hospital,Glossop Road,,,Sheffield,South Yorkshire,S10 2JF,53.37835693,-1.493316293,Sheffield Teaching Hospitals NHS Foundation Trust,http://www.sth.nhs.uk
Northern General Hospital,,Northern General Hospital,Herries Road,Sheffield,South Yorkshire,S5 7AU,53.40887833,-1.460876465,Sheffield Teaching Hospitals NHS Foundation Trust,http://www.sth.nhs.uk/
Weston Park Hospital,Whitham Road,,,Sheffield,South Yorkshire,S10 2SJ,53.38025284,-1.494917393,Sheffield Teaching Hospitals NHS Foundation Trust,http://www.sth.nhs.uk
Queen Alexandra Hospital,Southwick Hill Road,Cosham,,Portsmouth,Hampshire,PO6 3LY,50.85029984,-1.069917679,Portsmouth Hospitals NHS Trust,http://www.porthosp.nhs.uk
Petersfield Community Hospital,,Swan Street,,Petersfield,Hampshire,GU32 3LB,51.00388718,-0.942384362,Portsmouth Hospitals NHS Trust,http://www.childbirthchoices.co.uk
Royal Berkshire Hospital,London Road,Craven Road,,Reading,Berkshire,RG1 5AN,51.4510231,-0.959315777,Royal Berkshire NHS Foundation Trust,http://www.royalberkshire.nhs.uk
Prince Charles Eye Unit,St Leonards Road,,,Windsor,Berkshire,SL4 3DP,51.47354507,-0.614692628,Royal Berkshire NHS Foundation Trust,http://www.royalberkshire.nhs.uk
Guy's Hospital,Great Maze Pond,,,London,,SE1 9RT,51.50464249,-0.088975295,Guy's and St Thomas' NHS Foundation Trust,http://www.guysandstthomas.nhs.uk
St Thomas',,Westminster Bridge Road,,London,,SE1 7EH,51.49795914,-0.118890636,Guy's and St Thomas' NHS Foundation Trust,http://www.guysandstthomas.nhs.uk
University Hospital Lewisham,Lewisham High Street,,,London,,SE13 6LH,51.45433044,-0.017036438,Lewisham and Greenwich NHS Trust,http://www.lewishamandgreenwich.nhs.uk
Croydon University Hospital,,530 London Road,,Thornton Heath,Surrey,CR7 7YE,51.38912964,-0.108768813,Croydon Health Services NHS Trust,http://www.croydonhealthservices.nhs.uk/
Purley War Memorial Hospital,856 Brighton Road,856 Brighton Road,,Purley,Surrey,CR8 2YL,51.3407402,-0.114451215,Croydon Health Services NHS Trust,http://www.croydonhealthservices.nhs.uk
St George's Hospital (London),Blackshaw Road,,,London,Greater London,SW17 0QT,51.42671967,-0.175731868,St George's University Hospitals NHS Foundation Trust,http://www.stgeorges.nhs.uk
Queen Mary - St George's University Hospitals NHS Foundation Trust,,Roehampton Lane,Roehampton,London,,SW15 5PN,51.45555115,-0.241715029,St George's University Hospitals NHS Foundation Trust,https://www.stgeorges.nhs.uk
St Austell Community Hospital - Cornwall Partnership NHS Foundation Trust,Porthpean Road,,,St. Austell,Cornwall,PL26 6AD,50.32788467,-4.772349834,Cornwall Partnership NHS Foundation Trust,
Newquay Hospital - Cornwall Partnership NHS Foundation Trust,St Thomas Road,,,Newquay,Cornwall,TR7 1RQ,50.41106415,-5.074197769,Cornwall Partnership NHS Foundation Trust,
Camborne Redruth Community Hospital - Cornwall Partnership NHS Foundation Trust,Barncoose,,,Redruth,Cornwall,TR15 3ER,50.22938919,-5.244363308,Cornwall Partnership NHS Foundation Trust,http://www.cornwallft.nhs.uk/hospitals/camborne-redruth/
Bodmin Hospital - Cornwall Partnership NHS Foundation Trust,Boundary Road,,,Bodmin,Cornwall,PL31 2QT,50.46724701,-4.74114418,Cornwall Partnership NHS Foundation Trust,http://www.cornwallft.nhs.uk
Stratton Hospital - Cornwall Partnership NHS Foundation Trust,Stratton,,,Bude,Cornwall,EX23 9BR,50.83075333,-4.517526627,Cornwall Partnership NHS Foundation Trust,
Launceston Hospital - Cornwall Partnership NHS Foundation Trust,Link Road,,,Launceston,Cornwall,PL15 9JD,50.62839127,-4.359761238,Cornwall Partnership NHS Foundation Trust,
Warwick Hospital,Warwick Hospital,Lakin Road,,Warwick,Warwickshire,CV34 5BW,52.28995132,-1.583200693,South Warwickshire NHS Foundation Trust,http://www.swft.nhs.uk
Stratford Hospital,,Arden Street,,Stratford-upon-Avon,Warwickshire,CV37 6NX,52.19526672,-1.713385463,South Warwickshire NHS Foundation Trust,http://www.swft.nhs.uk
Ellen Badger Hospital,,Stratford Road,,Shipston-on-Stour,Warwickshire,CV36 4AX,52.0668602,-1.622537017,South Warwickshire NHS Foundation Trust,http://www.swft.nhs.uk
Royal Stoke University Hospital,Newcastle Road,,,Stoke-on-Trent,Staffordshire,ST4 6QG,53.00402451,-2.214857817,University Hospitals of North Midlands,http://www.uhnm.nhs.uk
"Queen's Hospital, Burton Upon Trent",Belvedere Road,,,Burton -on- Trent,Staffordshire,DE13 0RB,52.81777954,-1.65636909,Burton Hospitals NHS Foundation Trust,http://www.burtonhospitals.nhs.uk/
Samuel Johnson Community Hospital,Samuel Johnson Community Hospital,Trent Valley Road,,Lichfield,Staffordshire,WS13 6EF,52.68593979,-1.815455794,Burton Hospitals NHS Foundation Trust,http://www.burtonhospitals.nhs.uk
Sir Robert Peel Hospital,,Plantation Lane,Mile Oak,Tamworth,Staffordshire,B78 3NG,52.6206665,-1.723852634,Burton Hospitals NHS Foundation Trust,http://www.burtonhospitals.nhs.uk
"Diana, Princess Of Wales Hospital",Scartho Road,,,Grimsby,,DN33 2BA,53.54485703,-0.096213497,Northern Lincolnshire and Goole NHS Foundation Trust,http://www.nlg.nhs.uk/hospitals/grimsby
Goole and District Hospital,Woodland Avenue,,,Goole,Yorkshire(West Riding),DN14 6RX,53.71546555,-0.874916792,Northern Lincolnshire and Goole NHS Foundation Trust,http://www.nlg.nhs.uk/hospitals/goole
Scunthorpe General Hospital,Cliff Gardens,,,Scunthorpe,,DN15 7BH,53.58758545,-0.667584062,Northern Lincolnshire and Goole NHS Foundation Trust,http://www.nlg.nhs.uk/hospitals/scunthorpe
Congleton War Memorial Hospital,Congleton War Memorial Hospital,Canal Road,,Congleton,Cheshire,CW12 3AR,53.15802765,-2.202660799,East Cheshire NHS Trust,http://www.eastcheshire.nhs.uk
Knutsford and District Community Hospital,Knutsford District and Community Hospital,Bexton Road,,Knutsford,Cheshire,WA16 0BT,53.30203247,-2.378500462,East Cheshire NHS Trust,http://www.eastcheshire.nhs.uk
Macclesfield District General Hospital,,Victoria Road,,Macclesfield,Cheshire,SK10 3BL,53.26232529,-2.141059637,East Cheshire NHS Trust,http://www.eastcheshire.nhs.uk
Countess Of Chester Hospital,The Countess Of Chester Health Park,,,Chester,Cheshire,CH2 1HJ,53.21177292,-2.899009943,Countess Of Chester Hospital NHS Foundation Trust,http://www.coch.nhs.uk
Ellesmere Port Hospital,114 Chester Road,Whitby,,Ellesmere Port,Merseyside,CH65 6SG,53.2677803,-2.911025286,Countess Of Chester Hospital NHS Foundation Trust,http://www.coch.nhs.uk/eph
King's College Hospital,,Denmark Hill,,London,,SE5 9RS,51.46807861,-0.093901388,King's College Hospital NHS Foundation Trust,http://www.kch.nhs.uk
King's Mill Hospital,Mansfield Road,,,Sutton-In-Ashfield,Nottinghamshire,NG17 4JL,53.13434219,-1.232269526,Sherwood Forest Hospitals NHS Foundation Trust,http://www.sfh-tr.nhs.uk
Mansfield Community Hospital,Stockwell Gate,,,Mansfield,Nottinghamshire,NG18 5QJ,53.14120102,-1.206135035,Sherwood Forest Hospitals NHS Foundation Trust,http://www.sfh-tr.nhs.uk
Newark Hospital,Boundary Road,,,Newark,Nottinghamshire,NG24 4DE,53.0675087,-0.806145906,Sherwood Forest Hospitals NHS Foundation Trust,http://www.sfh-tr.nhs.uk
Derriford Hospital,Derriford Road,Crownhill,,Plymouth,Devon,PL6 8DH,50.41672897,-4.113671303,Plymouth Hospitals NHS Trust,http://www.plymouthhospitals.nhs.uk
Royal Eye Infirmary,Derriford Road,Crownhill,,Plymouth,Devon,PL6 8DH,50.41672897,-4.113671303,Plymouth Hospitals NHS Trust,https://www.plymouthhospitals.nhs.uk/
University Hospital (Coventry),Clifford Bridge Road,,,Coventry,Warwickshire,CV2 2DX,52.42121506,-1.438388586,University Hospitals Coventry and Warwickshire NHS Trust,http://www.uhcw.nhs.uk
Hospital Of St Cross,Barby Rd,,,Rugby,Warwickshire,CV22 5PX,52.36527634,-1.259016037,University Hospitals Coventry and Warwickshire NHS Trust,http://www.uhcw.nhs.uk/
The Whittington Hospital At Hornsey Central,151 Park Road,,,London,Greater London,N8 8JD,51.58354187,-0.130745187,The Whittington Health NHS Trust,
The Whittington Health,Magdala Avenue,,,London,,N19 5NF,51.56631088,-0.138623089,The Whittington Health NHS Trust,http://www.whittington.nhs.uk
Cassel Hospital,The Cassel Hospital,1 Ham Common,,Richmond,Surrey,TW10 7JF,51.43291092,-0.308085978,West London Mental Health NHS Trust,http://www.wlmht.nhs.uk
Broadmoor Hospital,,Kentigern Drive,,Crowthorne,Berkshire,RG45 7EG,51.36908722,-0.780985534,West London Mental Health NHS Trust,http://www.wlmht.nhs.uk
The Robert Jones and Agnes Hunt Orthopaedic Hospital,,,,Oswestry,Shropshire,SY10 7AG,52.88452911,-3.03311491,Robert Jones and Agnes Hunt Orthopaedic and District Hospital NHS Trust,http://www.rjah.nhs.uk
New Cross Hospital,Wolverhampton Road,Heath Town,,Wolverhampton,West Midlands,WV10 0QP,52.59972763,-2.095540524,The Royal Wolverhampton NHS Trust,http://www.royalwolverhampton.nhs.uk/
Sunderland Royal Hospital,,Kayll Road,,Sunderland,,SR4 7TP,54.90306473,-1.411002755,City Hospitals Sunderland NHS Foundation Trust,http://www.chsft.nhs.uk
Sunderland Eye Infirmary,,Queen Alexandra Road,,Sunderland,,SR2 9HP,54.8890686,-1.381056666,City Hospitals Sunderland NHS Foundation Trust,http://www.chsft.nhs.uk
"The County Hospital, Wye Valley NHS Trust",,,Stonebow Road,Hereford,Herefordshire,HR1 2BN,52.05873489,-2.707180262,Wye Valley NHS Trust,http://www.wyevalley.nhs.uk
Bromyard Community Hospital,"Bromyard Community Hospital, Wye Valley NHS Trust",Hillside Road,,Bromyard,,HR7 4QN,52.18632889,-2.506896019,Wye Valley NHS Trust,
Ledbury Community Health Centre,Wye Valley NHS Trust,Market Street,,Ledbury,Herefordshire,HR8 2AQ,52.03630829,-2.425731897,Wye Valley NHS Trust,http://www.wyevalley.nhs.uk
Leominster Community Hospital,"Leominster Community Hospital, Wye Valley NHS Trust",South Street,,Leominster,,HR6 8JH,52.22218704,-2.739360332,Wye Valley NHS Trust,http://www.wyevalley.nhs.uk
Ross on Wye Community Hospital ,"Ross on Wye Community Hospital, Wye Valley NHS Trust",Alton Street,,Ross-on-Wye,Herefordshire,HR9 5AD,51.9125824,-2.583488941,Wye Valley NHS Trust,
George Eliot Hospital,College Street,,,Nuneaton,Warwickshire,CV10 7DJ,52.51258469,-1.478424549,George Eliot Hospital NHS Trust,http://www.geh.nhs.uk
Birmingham Women,Birmingham Women's Hospital,Mindelsohn Way,Edgbaston,Birmingham,,B15 2TG,52.45323563,-1.942890882,Birmingham Women's NHS Foundation Trust,http://www.bwhct.nhs.uk
Harplands Hospital,Hilton Road,,,Stoke-on-Trent,Staffordshire,ST4 6RR,53.00031662,-2.20807457,North Staffordshire Combined Healthcare NHS Trust,
Norfolk and Norwich University Hospital,,Colney Lane,,Norwich,Norfolk,NR4 7UY,52.61808395,1.221081495,Norfolk and Norwich University Hospitals NHS Foundation Trust,http://www.nnuh.nhs.uk
Cromer and District Hospital,Mill Road,Mill Road,,Cromer,Norfolk,NR27 0BQ,52.92356491,1.309174538,Norfolk and Norwich University Hospitals NHS Foundation Trust,http://www.nnuh.nhs.uk
Salford Royal,Salford Royal,Stott Lane,,Salford,,M6 8HD,53.48754883,-2.323409557,Salford Royal NHS Foundation Trust,http://www.srft.nhs.uk
Royal Bolton Hospital,Minerva Road,Farnworth,,Bolton,Lancashire,BL4 0JR,53.55396271,-2.429878712,Bolton NHS Foundation Trust,http://www.boltonft.nhs.uk
Tameside Hospital,Fountain St,,,Ashton Under Lyne,Lancashire,OL6 9RW,53.49153519,-2.071418524,Tameside Hospital NHS Foundation Trust,http://www.tamesidehospital.nhs.uk
"Hellesdon Hospital, Norwich",,Drayton High Road,,Norwich,Norfolk,NR6 5BE,52.65953064,1.250886321,Norfolk and Suffolk NHS Foundation Trust,
Julian Hospital,Bowthorpe Road,,,Norwich,Norfolk,NR2 3TD,52.63298035,1.262589574,Norfolk and Suffolk NHS Foundation Trust,http://www.nsft.nhs.uk
Bickley Day Hospital,Defiant Precinct,Church Street,,Attleborough,Norfolk,NR17 2QE,52.51782227,1.017294884,Norfolk and Suffolk NHS Foundation Trust,http://www.nsft.nhs.uk/Pages/Home.aspx
Carlton Court,Carlton Court Hospital,St. Peters Road,,Carlton Colville,Suffolk,NR33 8AG,52.45330048,1.696761727,Norfolk and Suffolk NHS Foundation Trust,http://www.nsft.nhs.uk
"The Fermoy Unit, Kings Lynn",Queen Elizabeth Hospital,"QE Hospital, Gayton Road",,,King's Lynn,PE30 4ET,52.75677109,0.446998805,Norfolk and Suffolk NHS Foundation Trust,
Savernake Hospital,General Hospital,,,Marlborough,Wiltshire,SN8 3HL,51.41556549,-1.705269814,Great Western Hospitals NHS Foundation Trust,www.gwh.nhs.uk
The Great Western Hospital,,Marlborough Road,,Swindon,Wiltshire,SN3 6BB,51.53853226,-1.727185845,Great Western Hospitals NHS Foundation Trust,http://www.gwh.nhs.uk
Trowbridge Community Hospital,,Adcroft Street,,Trowbridge,Wiltshire,BA14 8PH,51.32529831,-2.209868193,Great Western Hospitals NHS Foundation Trust,http://www.gwh.nhs.uk
Basingstoke and North Hampshire Hospital,Aldermaston Road,Aldermaston Road,,Basingstoke,Hampshire,RG24 9NA,51.28063583,-1.109903693,Hampshire Hospitals NHS Foundation Trust,http://www.hampshirehospitals.nhs.uk
Royal Hampshire County Hospital,,Romsey Road,,Winchester,Hampshire,SO22 5DG,51.06171036,-1.329156041,Hampshire Hospitals NHS Foundation Trust,http://www.hampshirehospitals.nhs.uk
Andover War Memorial Hospital,,Charlton Road,,Andover,Hampshire,SP10 3LB,51.2157402,-1.494678259,Hampshire Hospitals NHS Foundation Trust,http://www.hampshirehospitals.nhs.uk
Darent Valley Hospital,Darenth Wood Road,,,Dartford,Kent,DA2 8DA,51.43495178,0.258659244,Dartford and Gravesham NHS Trust,http://www.dvh.nhs.uk
Russells Hall Hospital,Pensnett Road,,,Dudley,West Midlands,DY1 2HQ,52.50294876,-2.118503094,The Dudley Group NHS Foundation Trust,http://www.dudleygroup.nhs.uk
Guest Hospital,Tipton Road,,,Dudley,West Midlands,DY1 4SE,52.52050018,-2.072715282,The Dudley Group NHS Foundation Trust,http://www.dgh.nhs.uk
Corbett Hospital,Vicarage Road,,,Stourbridge,West Midlands,DY8 4JB,52.46540833,-2.146383286,The Dudley Group NHS Foundation Trust,http://www.dgh.nhs.uk
Cumberland Infirmary,Newtown Road,,,Carlisle,Cumbria,CA2 7HY,54.89574814,-2.955279827,North Cumbria University Hospitals NHS Trust,http://www.ncuh.nhs.uk/index.aspx
West Cumberland Hospital,Homewood,Hensingham,,Whitehaven,,CA28 8JG,54.53020096,-3.563160181,North Cumbria University Hospitals NHS Trust,http://www.ncuh.nhs.uk
Penrith Hospital,Penrith Community Hospital,Bridge Lane,,Penrith,,CA11 8HX,54.65699768,-2.743259668,Cumbria Partnership NHS Foundation Trust,http://www.cumbriapartnership.nhs.uk
Cockermouth Community Hospital,,Isel Road,,Cockermouth,Cumbria,CA13 9HT,54.6668129,-3.358580589,Cumbria Partnership NHS Foundation Trust,https://www.cumbriapartnership.nhs.uk/where-we-work/cockermouth-community-hospital
Kettering General Hospital,,Rothwell Road,,Kettering,Northamptonshire,NN16 8UZ,52.40114594,-0.741529107,Kettering General Hospital NHS Foundation Trust,http://www.kgh.nhs.uk
Salisbury District Hospital,Odstock Road,,,Salisbury,Wiltshire,SP2 8BJ,51.04394913,-1.789808512,Salisbury NHS Foundation Trust,http://www.salisbury.nhs.uk
St Mary's Hospital,77 London Road,,,Kettering,Northamptonshire,NN15 7PW,52.39410019,-0.722185016,Northamptonshire Healthcare NHS Foundation Trust,http://www.nhft.nhs.uk
Isebrook Hospital,Irthlingborough Road,,,Wellingborough,Northamptonshire,NN8 1LP,52.29767227,-0.683344126,Northamptonshire Healthcare NHS Foundation Trust,
Great Ormond Street Hospital ,Great Ormond Street,,,London,Greater London,WC1N 3JH,51.52220917,-0.119909525,Great Ormond Street Hospital for Children NHS Foundation Trust,http://www.gosh.nhs.uk
Bassetlaw Hospital,Kilton Hill,Blyth Road,,Worksop,Nottinghamshire,S81 0BD,53.31767654,-1.109885216,Doncaster and Bassetlaw Hospitals NHS Foundation Trust,http://www.dbh.nhs.uk
Doncaster Royal Infirmary,Thorne Road,,,Doncaster,Yorkshire,DN2 5LT,53.53075409,-1.109211326,Doncaster and Bassetlaw Hospitals NHS Foundation Trust,http://www.dbh.nhs.uk
Montagu Hospital,Adwick Road,,,Mexborough,,S64 0AZ,53.49981689,-1.284931421,Doncaster and Bassetlaw Hospitals NHS Foundation Trust,http://www.dbh.nhs.uk
Retford Hospital,North Road,,,Retford,Nottinghamshire,DN22 7XF,53.3254509,-0.950618625,Doncaster and Bassetlaw Hospitals NHS Foundation Trust,http://www.dbh.nhs.uk
Moorfields Eye Hospital (City Road),162 City Road,,,London,,EC1V 2PD,51.52724457,-0.089874275,Moorfields Eye Hospital NHS Foundation Trust,http://www.moorfields.nhs.uk
"Discovery House - The Fens, The Vales & The Wolds",St Georges,Long Leys Road,,LINCOLN,Lincolnshire,LN1 1EE,53.242836,-0.557784677,Lincolnshire Partnership NHS Foundation Trust,
Peter Hodgkinson Centre - Charlesworth Ward & Conolly Ward,Peter Hodgkinson Centre,Lincoln County Hospital,Greetwell Road,Lincoln,Lincolnshire,LN2 5QY,53.23357773,-0.51962018,Lincolnshire Partnership NHS Foundation Trust,
Manthorpe Centre,Manthorpe Centre,Grantham Hospital Site,,101 Manthorpe Road,,NG31 8DG,52.92108917,-0.640699148,Lincolnshire Partnership NHS Foundation Trust,
Medway Maritime Hospital,Windmill Road,,,Gillingham,Kent,ME7 5NY,51.37985992,0.542076051,Medway NHS Foundation Trust,http://www.medway.nhs.uk
Queen Victoria Hospital (East Grinstead),,Holtye Road,,East Grinstead,West Sussex,RH19 3DZ,51.13507462,-0.002886042,Queen Victoria Hospital NHS Foundation Trust,http://www.qvh.nhs.uk
Green Parks House,,Princess Royal University Hospital,Farnborough Common,Orpington,Kent,BR6 8NY,51.36606979,0.056682058,Oxleas NHS Foundation Trust,
Oxleas House,Queen Elizabeth Hospital,Stadium Road,,London,,SE18 4QH,51.47819138,0.050057109,Oxleas NHS Foundation Trust,http://www.oxleas.nhs.uk
Memorial Hospital (Greenwich),Shooters Hill,Woolwich,,London,,SE18 3RG,51.46857452,0.064125076,Oxleas NHS Foundation Trust,http://www.oxleas.nhs.uk
Queen Mary,,Frognal Avenue,,Sidcup,Kent,DA14 6LT,51.41904068,0.101675332,Oxleas NHS Foundation Trust,http://qmh.oxleas.nhs.uk
The Royal Marsden Hospital (London),Fulham Road,,,London,Greater London,SW3 6JJ,51.49056244,-0.172550783,The Royal Marsden NHS Foundation Trust,http://www.royalmarsden.nhs.uk
The Royal Marsden Hospital (Surrey),Downs Road,,,Sutton,Surrey,SM2 5PT,51.34381104,-0.191001073,The Royal Marsden NHS Foundation Trust,http://www.royalmarsden.nhs.uk
Birmingham Children's Hospital,,Steelhouse Lane,,Birmingham,,B4 6NH,52.48489761,-1.8937397,Birmingham Women's and Children's NHS Foundation Trust,http://www.bch.nhs.uk
Broadgreen Hospital,Thomas Drive,,,Liverpool,Merseyside,L14 3LB,53.4111557,-2.89797473,Royal Liverpool and Broadgreen University Hospitals NHS Trust,http://www.rlbuht.nhs.uk/OurHospitals/Pages/Broadgreen%20Hospital.aspx
Royal Liverpool University Dental Hospital,Pembroke Place,,,Liverpool,Merseyside,L3 5PS,53.40892792,-2.967007399,Royal Liverpool and Broadgreen University Hospitals NHS Trust,http://www.rlbuht.nhs.uk
The Royal Liverpool University Hospital,Prescot Street,,,Liverpool,Merseyside,L7 8XP,53.40951157,-2.964794159,Royal Liverpool and Broadgreen University Hospitals NHS Trust,http://www.rlbuht.nhs.uk
Broomfield Hospital,,Court Road,,Chelmsford,Essex,CM1 7ET,51.77461243,0.466733307,Mid Essex Hospital Services NHS Trust,http://www.meht.nhs.uk/
St Michael's Hospital,,Rayne Road,,Braintree,Essex,CM7 2QU,51.87958527,0.541144848,Mid Essex Hospital Services NHS Trust,http://www.meht.nhs.uk
St Peter's Hospital,,Spital Road,,Maldon,Essex,CM9 6EG,51.73000336,0.671979904,Mid Essex Hospital Services NHS Trust,
William Julien Courtauld Hospital,,London Road,,Braintree,Essex,CM7 2LJ,51.87483978,0.545119762,Mid Essex Hospital Services NHS Trust,http://www.meht.nhs.uk
Braintree Community Hospital,Braintree Community Hospital,Chadwick Drive,,Braintree,Essex,CM7 2AL,51.87889481,0.541047812,Mid Essex Hospital Services NHS Trust,
Chelsea and Westminster Hospital,369 Fulham Road,,,London,,SW10 9NH,51.48431015,-0.181629702,Chelsea and Westminster Hospital NHS Foundation Trust,http://www.chelwest.nhs.uk
Princess Alexandra Hospital,,Hamstel Road,,Harlow,Essex,CM20 1QX,51.77153015,0.085471295,The Princess Alexandra Hospital NHS Trust,http://www.pah.nhs.uk/
Homerton University Hospital,Homerton Row,Homerton Row,,London,Greater London,E9 6SR,51.55063248,-0.046084356,Homerton University Hospital NHS Foundation Trust,http://www.homerton.nhs.uk
Springfield University Hospital,61 Glenburnie Road,,,London,,SW17 7DJ,51.43703842,-0.17152229,South West London and St George's Mental Health NHS Trust,http://www.swlstg-tr.nhs.uk
Barnes Hospital,,South Worple Way,Barnes,London,,SW14 8SU,51.46709061,-0.256503701,South West London and St George's Mental Health NHS Trust,http://www.swlstg-tr.nhs.uk
Tolworth Hospital,Red Lion Road,Red Lion Road,,Surbiton,Surrey,KT6 7QU,51.37943649,-0.288978189,South West London and St George's Mental Health NHS Trust,http://www.swlstg-tr.nhs.uk
Heartlands Hospital,Bordesley Green East,Bordesley Green,,Birmingham,West Midlands,B9 5SS,52.48022079,-1.829951048,Heart Of England NHS Foundation Trust,http://www.heartofengland.nhs.uk
Good Hope Hospital,Rectory Road,,,Sutton Coldfield,West Midlands,B75 7RR,52.56736755,-1.812028766,Heart Of England NHS Foundation Trust,http://www.heartofengland.nhs.uk/templates/Page.aspx?id=5431
Solihull Hospital,Lode Lane,,,Solihull,West Midlands,B91 2JL,52.4171257,-1.774350882,Heart Of England NHS Foundation Trust,http://www.heartofengland.nhs.uk
Bensham Hospital,Saltwell Road,,,Gateshead,Tyne and Wear,NE8 4YL,54.94495773,-1.614957929,Gateshead Health NHS Foundation Trust,http://www.qegateshead.nhs.uk
Queen Elizabeth Hospital,Sheriff Hill,,,Gateshead,Tyne and Wear,NE9 6SX,54.93938446,-1.580765486,Gateshead Health NHS Foundation Trust,http://www.qegateshead.nhs.uk
Dunston Hill Hospital,Dunston Hill,,,Gateshead,Tyne and Wear,NE11 9QT,54.94639587,-1.659452677,Gateshead Health NHS Foundation Trust,http://www.qegateshead.nhs.uk
Leeds General Infirmary,Great George Street,,,Leeds,West Yorkshire,LS1 3EX,53.80146027,-1.552119255,Leeds Teaching Hospitals NHS Trust,http://www.leedsth.nhs.uk
Leeds Dental Hospital,Clarendon Way,,,Leeds,West Yorkshire,LS2 9LU,53.80337524,-1.555701375,Leeds Teaching Hospitals NHS Trust,http://www.leedsth.nhs.uk
Wharfedale Hospital,Newall Carr Road,,,Otley,West Yorkshire,LS21 2LY,53.91436005,-1.700584412,Leeds Teaching Hospitals NHS Trust,http://www.leedsth.nhs.uk
St James's Hospital,Beckett Street,Beckett Street,,Leeds,West Yorkshire,LS9 7TF,53.80687332,-1.520343781,Leeds Teaching Hospitals NHS Trust,http://www.leedsth.nhs.uk
Seacroft Hospital,York Road,,,Leeds,West Yorkshire,LS14 6UH,53.80659103,-1.470889211,Leeds Teaching Hospitals NHS Trust,http://www.leedsth.nhs.uk
Chapel Allerton Hospital,Chapeltown Road,,,Leeds,West Yorkshire,LS7 4SA,53.82263947,-1.529794812,Leeds Teaching Hospitals NHS Trust,http://www.leedsth.nhs.uk
St George's,Corporation Street,,,Stafford,Staffordshire,ST16 3SR,52.81063843,-2.109251738,South Staffordshire and Shropshire Healthcare NHS Foundation Trust,http://www.sssft.nhs.uk
Leigh Infirmary,,The Avenue,,Leigh,Lancashire,WN7 1HS,53.50441742,-2.512239456,"Wrightington, Wigan and Leigh NHS Foundation Trust",http://www.wwl.nhs.uk/hospitals/leigh.aspx
Royal Albert Edward Infirmary,,Wigan Lane,,Wigan,Lancashire,WN1 2NN,53.55774307,-2.629076481,"Wrightington, Wigan and Leigh NHS Foundation Trust",http://www.wwl.nhs.uk/hospitals/raei.aspx
Wrightington Hospital,,Hall Lane,Appley Bridge,Wigan,Lancashire,WN6 9EP,53.59041595,-2.709481001,"Wrightington, Wigan and Leigh NHS Foundation Trust",http://www.wwl.nhs.uk/hospitals/wrightington/default.aspx
Royal Orthopaedic Hospital,The Woodlands,Bristol Road South,Northfield,Birmingham,West Midlands,B31 2AP,52.42113876,-1.960812807,The Royal Orthopaedic Hospital NHS Foundation Trust,http://www.roh.nhs.uk/
Queen Elizabeth Hospital Birmingham,Mindelsohn Way,Edgbaston,,Birmingham,,B15 2WB,52.45014954,-1.941761851,University Hospital Birmingham NHS Foundation Trust,http://www.uhb.nhs.uk
University College Hospital,University College Hospital,235 Euston Road,,London,,NW1 2BU,51.5248909,-0.136896163,University College London Hospitals NHS Foundation Trust,http://www.uclh.nhs.uk
University College Hospital at Westmoreland Street,University College Hospital at Westmoreland Street,16-18 Westmoreland Street,,London,,W1G 8PH,51.51958084,-0.149753928,University College London Hospitals NHS Foundation Trust,http://www.uclh.nhs.uk/OurServices/OurHospitals/HH/Pages/Home.aspx
The Royal London Hospital For Integrated Medicine,60 Great Ormond Street,60 Great Ormond Street,,London,,WC1N 3HR,51.52173996,-0.121384807,University College London Hospitals NHS Foundation Trust,http://www.uclh.nhs.uk/rlhim
Uclh Outreach: The Princess Grace Hospital,42-52 Nottingham Place,,,London,Greater London,W1U 5NY,51.52236557,-0.152913287,University College London Hospitals NHS Foundation Trust,
The Eastman Dental Hospital,,256 Gray's Inn Road,,London,,WC1X 8LD,51.52583313,-0.117021255,University College London Hospitals NHS Foundation Trust,http://www.uclh.nhs.uk
"National Hospital For Neurology and Neurosurgery, Queen Square",,Queen Square,,London,,WC1N 3BG,51.52217102,-0.121986859,University College London Hospitals NHS Foundation Trust,http://www.uclh.nhs.uk/
Hospital For Tropical Diseases,Mortimer Market Centre,Mortimer Market,Off Capper Street,London,,WC1E 6JD,51.52315903,-0.135395616,University College London Hospitals NHS Foundation Trust,http://www.uclh.nhs.uk
"Royal National Throat, Nose and Ear Hospital",,330 Grays Inn Road,,London,,WC1X 8DA,51.52920151,-0.119174503,University College London Hospitals NHS Foundation Trust,http://www.uclh.nhs.uk/OurServices/OurHospitals/RNTNE/Pages/Home.aspx
Fulbourn Hospital,,Fulbourn Hospital,Fulbourn,Cambridge,,CB21 5EF,52.185215,0.188189894,Cambridgeshire and Peterborough NHS Foundation Trust,http://www.cpft.nhs.uk
Harefield Hospital,Hill End Road,,,Harefield,Middlesex,UB9 6JH,51.60673141,-0.482753932,Royal Brompton and Harefield NHS Foundation Trust,http://www.rbht.nhs.uk/
Royal Brompton Hospital,Sydney Street,,,London,Greater London,SW3 6NP,51.48974228,-0.170840546,Royal Brompton and Harefield NHS Foundation Trust,http://www.rbht.nhs.uk
Freeman Hospital,Freeman Road,High Heaton,,Newcastle Upon Tyne,Tyne and Wear,NE7 7DN,55.00276184,-1.59370625,The Newcastle Upon Tyne Hospitals NHS Foundation Trust,http://www.newcastle-hospitals.nhs.uk/
The Royal Victoria Infirmary,Queen Victoria Road,New Victoria Wing,Royal Victoria Infirmary,Newcastle Upon Tyne,,NE1 4LP,54.98021698,-1.618839502,The Newcastle Upon Tyne Hospitals NHS Foundation Trust,http://www.newcastle-hospitals.nhs.uk/
Newcastle Dental Hospital,Richardson Road,,,Newcastle Upon Tyne,Tyne and Wear,NE2 4AZ,54.98150253,-1.62270236,The Newcastle Upon Tyne Hospitals NHS Foundation Trust,http://www.newcastle-hospitals.nhs.uk/
Great North Childrens Hospital,Queen Victoria Road,New Victoria Wing,Royal Victoria Infirmary,Newcastle Upon Tyne,,NE1 4LP,54.98021698,-1.618839502,The Newcastle Upon Tyne Hospitals NHS Foundation Trust,http://www.gnch.nhs.uk
Cheltenham General Hospital,Sandford Road,,,Cheltenham,Gloucestershire,GL53 7AN,51.89212418,-2.07186842,Gloucestershire Hospitals NHS Foundation Trust,http://www.gloshospitals.nhs.uk
Gloucestershire Royal Hospital,Great Western Road,Great Western Road,,Gloucester,Gloucestershire,GL1 3NN,51.8663826,-2.232058525,Gloucestershire Hospitals NHS Foundation Trust,http://www.gloshospitals.nhs.uk
Moore Cottage Hospital,Moore Road,Bourton-on-The-Water,,Cheltenham,Gloucestershire,GL54 2AZ,51.88631058,-1.756776094,Gloucestershire Hospitals NHS Foundation Trust,
Thirlestaine Breast Centre,Cobalt House,Thirlstaine Road,,Cheltenham,,GL53 7AS,51.88847351,-2.069857597,Gloucestershire Hospitals NHS Foundation Trust,
Berwick Infirmary,Infirmary Square,,,Berwick-upon-Tweed,Northumberland,TD15 1LT,55.77328873,-2.004963875,Northumbria Healthcare NHS Foundation Trust,https://www.northumbria.nhs.uk/berwick
Alnwick Infirmary,Infirmary Drive,South Road,,Alnwick,Northumberland,NE66 2NS,55.41094208,-1.697199821,Northumbria Healthcare NHS Foundation Trust,https://www.northumbria.nhs.uk/alnwick
Hexham General Hospital,Corbridge Road,,,Hexham,Northumberland,NE46 1QJ,54.96961594,-2.09512949,Northumbria Healthcare NHS Foundation Trust,https://www.northumbria.nhs.uk/hexham
Haltwhistle War Memorial Hospital,Westgate,,,Haltwhistle,Northumberland,NE49 9AJ,54.97010803,-2.462919712,Northumbria Healthcare NHS Foundation Trust,https://www.northumbria.nhs.uk/haltwhistle
Blyth Community Hospital,Thoroton Street,,,Blyth,Northumberland,NE24 1DX,55.12787628,-1.514920115,Northumbria Healthcare NHS Foundation Trust,https://www.northumbria.nhs.uk/blyth
Northumbria Healthcare NHS Foundation Trust,"Unit 7/8, Silver Fox Way",Cobalt Business Park,,Newcastle Upon Tyne,Tyne and Wear,NE27 0QJ,55.02013397,-1.506383419,Northumbria Healthcare NHS Foundation Trust,
Wansbeck General Hospital,Woodhorn Lane,,,Ashington,Northumberland,NE63 9JJ,55.18431091,-1.546586394,Northumbria Healthcare NHS Foundation Trust,https://www.northumbria.nhs.uk/wansbeck
Rothbury Community Hospital,Whitton Bank Road,Rothbury,,Morpeth,Northumberland,NE65 7RW,55.30677414,-1.913899302,Northumbria Healthcare NHS Foundation Trust,https://www.northumbria.nhs.uk/rothbury
North Tyneside General Hospital,Rake Lane,,,North Shields,,NE29 8NH,55.02524185,-1.467324495,Northumbria Healthcare NHS Foundation Trust,https://www.northumbria.nhs.uk/north-tyneside
Royal Derby Hospital,Royal Derby Hospital,,,Derby,Derbyshire,DE22 3NE,52.91155624,-1.514264703,Derby Teaching Hospitals NHS Foundation Trust,http://www.derbyhospitals.nhs.uk
Churchill Hospital,,Old Road,Headington,Oxford,Oxfordshire,OX3 7LE,51.75033569,-1.214694381,Oxford University Hospitals NHS Foundation Trust,http://www.ouh.nhs.uk/hospitals/churchill/default.aspx
Horton General Hospital,,Oxford Road,,Banbury,Oxfordshire,OX16 9AL,52.05440903,-1.337175965,Oxford University Hospitals NHS Foundation Trust,http://www.ouh.nhs.uk/hospitals/horton/default.aspx
John Radcliffe Hospital,,Headley Way,Headington,Oxford,Oxfordshire,OX3 9DU,51.76387405,-1.219792008,Oxford University Hospitals NHS Foundation Trust,http://www.ouh.nhs.uk/hospitals/jr/default.aspx
Wallingford Community Hospital - Oxford University Hospitals NHS Foundation Trust,Reading Road,Reading Road,,Wallingford,Oxfordshire,OX10 9DU,51.59467697,-1.12827909,Oxford University Hospitals NHS Foundation Trust,
St Peter's Hospital,Guildford Road,,,Chertsey,Surrey,KT16 0PZ,51.37783432,-0.527046025,Ashford and St Peter's Hospitals NHS Foundation Trust,http://www.ashfordstpeters.nhs.uk
Ashford Hospital,London Road,,,Ashford,Middlesex,TW15 3AA,51.44402313,-0.472798347,Ashford and St Peter's Hospitals NHS Foundation Trust,http://www.ashfordstpeters.nhs.uk
Horsham Hospital,Hurst Road,,,Horsham,West Sussex,RH12 2DR,51.06988907,-0.323812664,Surrey and Sussex Healthcare NHS Trust,
East Cleveland Hospital,Alford Road,Brotton,,Saltburn-By-The-Sea,Cleveland,TS12 2FF,54.56526947,-0.936341345,South Tees Hospitals NHS Foundation Trust,
Friarage Hospital Site,Friarage Hospital,,,Northallerton,North Yorkshire,DL6 1JG,54.34233475,-1.430518746,South Tees Hospitals NHS Foundation Trust,http://www.southtees.nhs.uk
Guisborough General Hospital ,Northgate,Guisborough,,Guisborough,Cleveland,TS14 6HZ,54.53883743,-1.052146792,South Tees Hospitals NHS Foundation Trust,http://www.southtees.nhs.uk
The James Cook University Hospital,Marton Road,,,Middlesbrough,Cleveland,TS4 3BW,54.55175781,-1.214789987,South Tees Hospitals NHS Foundation Trust,
Hollins Park Hospital - HQ,Hollins Park House,Hollins Lane,Winwick,Warrington,Lancashire,WA2 8WA,53.42951965,-2.606847763,North West Boroughs Healthcare NHS Foundation Trust,
Royal Lancaster Infirmary,Ashton Road,,,Lancaster,Lancashire,LA1 4RP,54.04273224,-2.799217224,University Hospitals Of Morecambe Bay NHS Foundation Trust,http://www.uhmb.nhs.uk/
Furness General Hospital,Dalton Lane,,,Barrow-In-Furness,Cumbria,LA14 4LF,54.13640213,-3.20788455,University Hospitals Of Morecambe Bay NHS Foundation Trust,http://www.mbht.nhs.uk
Westmorland General Hospital,,Burton Rd,,Kendal,,LA9 7RG,54.30670929,-2.732536793,University Hospitals Of Morecambe Bay NHS Foundation Trust,http://www.uhmb.nhs.uk/
The Gordon Hospital,Bloomburg Street,,,London,,SW1V 2RH,51.49234009,-0.135774717,Central and North West London NHS Foundation Trust,http://www.cnwl.nhs.uk/services/acute/
The Riverside Centre,Pield Heath Road,Hillingdon Hospital,,Uxbridge,Middlesex,UB8 3NN,51.52607727,-0.461160362,Central and North West London NHS Foundation Trust,
Lambeth Hospital,108 Landor Road,108 Landor Road,,London,,SW9 9NU,51.46531677,-0.122234575,South London and Maudsley NHS Foundation Trust,http://www.slam.nhs.uk/our-services/hospital-care/lambeth-hospital
Maudsley Hospital,,Denmark Hill,,London,,SE5 8AZ,51.46873856,-0.091426156,South London and Maudsley NHS Foundation Trust,http://www.slam.nhs.uk/our-services/hospital-care/maudsley-hospital
Bethlem Royal Hospital,Monks Orchard Road,Monks Orchard Road,,"Beckenham, London",,BR3 3BX,51.38092041,-0.029753098,South London and Maudsley NHS Foundation Trust,http://www.slam.nhs.uk/our-services/hospital-care/bethlem-royal-hospital
Alfred Bean Community Hospital,Bridlington Road,,,Driffield,Yorkshire(East Riding),YO25 5JR,54.01216507,-0.423216522,Humber NHS Foundation Trust,http://www.chcpcic.org.uk/
Westlands - Inpatient Unit,,Wheeler Street,,Hull,,HU3 5QE,53.74201202,-0.384643078,Humber NHS Foundation Trust,http://www.humber.nhs.uk
Newbridges - Inpatient Unit,,Birkdale Way,Newbridge Road,Hull,,HU9 2BH,53.74993896,-0.308325261,Humber NHS Foundation Trust,http://www.humber.nhs.uk
Maister Lodge - Inpatient Unit,,Hauxwell Road,,Hull,,HU8 0RB,53.77357864,-0.286600292,Humber NHS Foundation Trust,http://www.humber.nhs.uk
Hawthorne Court - Inpatient Unit,,St Mary's Lane,,Beverley,,HU17 7AS,53.84576416,-0.434097558,Humber NHS Foundation Trust,http://www.humber.nhs.uk
Avondale Assessment Unit and Psychiatric Intensive Care Unit,,Gladstone Street,Anlaby Road,Hull,,HU3 2RT,53.74435806,-0.362185776,Humber NHS Foundation Trust,http://www.humber.nhs.uk
Southmead Hospital,Southmead Road,Westbury-on-Trym,,Bristol,Avon,BS10 5NB,51.49727631,-2.592948198,North Bristol NHS Trust,http://www.nbt.nhs.uk
Frenchay Hospital,,Frenchay Park Road,,Bristol,Avon,BS16 1LE,51.4966011,-2.528403997,North Bristol NHS Trust,http://www.nbt.nhs.uk
Cossham Hospital,,Lodge Road,Kingswood,Bristol,Avon,BS15 1LF,51.46889114,-2.516105652,North Bristol NHS Trust,http://www.nbt.nhs.uk
St Martins Hospital (Bath),Midford Road,,,Bath,,BA2 5RP,51.35817337,-2.372606993,Avon and Wiltshire Mental Health Partnership NHS Trust,http://www.awp.nhs.uk
Green Lane Hospital,Marshall Road,,,Devizes,Wiltshire,SN10 5DS,51.33915329,-1.981288552,Avon and Wiltshire Mental Health Partnership NHS Trust,http://www.awp.nhs.uk
Callington Road Hospital,Marmalade Lane,Brislington,,Bristol,,BS4 5BJ,51.4312706,-2.557540894,Avon and Wiltshire Mental Health Partnership NHS Trust,http://www.awp.nhs.uk/
St Helier Hospital,Wrythe Lane,,,Carshalton,Surrey,SM5 1AA,51.38031387,-0.183627352,Epsom and St Helier University Hospitals NHS Trust,http://www.epsom-sthelier.nhs.uk
Sutton Hospital,Cotswold Road,,,Sutton,Surrey,SM2 5NF,51.34687042,-0.193551436,Epsom and St Helier University Hospitals NHS Trust,http://www.epsom-sthelier.nhs.uk
Queen Mary's Hospital For Children,Wrythe Lane,,,Carshalton,Surrey,SM5 1AA,51.38031387,-0.183627352,Epsom and St Helier University Hospitals NHS Trust,http://www.epsom-sthelier.nhs.uk
Epsom Hospital,Dorking Road,,,Epsom,Surrey,KT18 7EG,51.32551956,-0.273216724,Epsom and St Helier University Hospitals NHS Trust,http://www.epsom-sthelier.nhs.uk
William Harvey Hospital (Ashford),Kennington Road,Willesborough,,Ashford,Kent,TN24 0LZ,51.14148712,0.916223049,East Kent Hospitals University NHS Foundation Trust,http://www.ekhuft.nhs.uk/williamharvey
Buckland Hospital,Buckland Hospital,Coombe Valley Road,,Dover,Kent,CT17 0HD,51.13205338,1.292394757,East Kent Hospitals University NHS Foundation Trust,http://www.ekhuft.nhs.uk/buckland
Royal Victoria Hospital (Folkestone),Royal Victoria Hospital,Radnor Park Avenue,,Folkestone,Kent,CT19 5BN,51.08599472,1.171908617,East Kent Hospitals University NHS Foundation Trust,http://www.ekhuft.nhs.uk/royalvictoria
Queen Elizabeth The Queen Mother Hospital,Queen Elizabeth The Queen Mother Hospital,St Peters Road,,Margate,Kent,CT9 4AN,51.37805176,1.389398694,East Kent Hospitals University NHS Foundation Trust,http://www.ekhuft.nhs.uk/qeqm
Kent and Canterbury Hospital,Kent and Canterbury Hospital,Ethelbert Road,,Canterbury,Kent,CT1 3NG,51.2665863,1.087097526,East Kent Hospitals University NHS Foundation Trust,http://www.ekhuft.nhs.uk/kentandcanterburyhospital
University Hospital Of Hartlepool,Holdforth Road,,,Hartlepool,Cleveland,TS24 9AH,54.70240021,-1.227821112,North Tees and Hartlepool NHS Foundation Trust,http://www.nth.nhs.uk
University Hospital Of North Tees,Hardwick Road,,,Stockton-on-Tees,Cleveland,TS19 8PE,54.58285904,-1.347565413,North Tees and Hartlepool NHS Foundation Trust,http://www.nth.nhs.uk
Peterlee Community Hospital,O'Neill Drive,,,Peterlee,,SR8 5UQ,54.75407028,-1.333023429,North Tees and Hartlepool NHS Foundation Trust,http://www.nth.nhs.uk
Southport and Formby District General Hospital,,Town Lane,,Southport,Merseyside,PR8 6PN,53.63367081,-2.978144884,Southport and Ormskirk Hospital NHS Trust,http://www.southportandormskirk.nhs.uk/
Ormskirk and District General Hospital,,Wigan Road,,Ormskirk,Lancashire,L39 2AZ,53.56462097,-2.871237278,Southport and Ormskirk Hospital NHS Trust,http://www.southportandormskirk.nhs.uk
Moorgreen Hospital,Botley Road,West End,,Southampton,Hampshire,SO30 3JB,50.92783356,-1.325234652,Southern Health NHS Foundation Trust,http://www.southernhealth.nhs.uk/
Gosport War Memorial Hospital,Bury Road,Gosport,,Gosport,Hampshire,PO12 3PW,50.79306412,-1.148066759,Southern Health NHS Foundation Trust,
Fareham Community Hospital,Brook Lane,Sarisbury Green,Sarisbury,Fareham,Hampshire,SO31 7DQ,50.87100983,-1.275508523,Southern Health NHS Foundation Trust,http://www.southernhealth.nhs.uk/services/community-health-services/hospitals/fareham/
Ashworth Hospital,Parkbourn,Maghull,,Liverpool,Merseyside,L31 1HW,53.51867294,-2.915359974,Mersey Care NHS Foundation Trust,http://www.merseycare.nhs.uk
Ribbleton Hospital,Miller Road,Ribbleton,,Preston,Lancashire,PR2 6LS,53.77164841,-2.657579422,Lancashire Care NHS Foundation Trust,
Queen Victoria Hospital,Thornton Road,,,Morecambe,Lancashire,LA4 5QG,54.07531738,-2.854282379,Lancashire Care NHS Foundation Trust,
Fairfield General Hospital,Fairfield General Hospital,Rochdale Old Road,,Bury,Lancashire,BL9 7TD,53.60042572,-2.255607843,Pennine Acute Hospitals NHS Trust,http://www.pat.nhs.uk
North Manchester General Hospital,Delaunays Road,Crumpsall,,Manchester,Greater Manchester,M8 5RB,53.51788712,-2.229486942,Pennine Acute Hospitals NHS Trust,http://www.pat.nhs.uk
Royal Oldham Hospital,Rochdale Road,,,Oldham,Lancashire,OL1 2JH,53.55325317,-2.121816158,Pennine Acute Hospitals NHS Trust,http://www.pat.nhs.uk
Rochdale Infirmary,Whitehall Street,,,Rochdale,Lancashire,OL12 0NB,53.62428665,-2.160136938,Pennine Acute Hospitals NHS Trust,http://www.pat.nhs.uk
Birch Hill Hospital,Union Road,,,Rochdale,Lancashire,OL12 9QB,53.64026642,-2.121371508,Pennine Acute Hospitals NHS Trust,http://www.pat.nhs.uk
Hull Royal Infirmary,Anlaby Road,,,Hull,,HU3 2JZ,53.74411392,-0.35813126,Hull and East Yorkshire Hospitals NHS Trust,http://www.hey.nhs.uk/
Castle Hill Hospital,Castle Road,,,Cottingham,,HU16 5JQ,53.7767334,-0.444969475,Hull and East Yorkshire Hospitals NHS Trust,http://www.hey.nhs.uk
Beverley Westwood Hospital,East Riding Community Hospital,Swinemoor Lane,,Beverley,East Yorkshire,HU17 0FA,53.85277557,-0.413159162,Hull and East Yorkshire Hospitals NHS Trust,
County Hospital Louth - United Lincolnshire Hospitals NHS Trust,High Holme Road,,,Louth,Lincolnshire,LN11 0EU,53.37100983,-0.008567074,United Lincolnshire Hospitals NHS Trust,http://www.ulh.nhs.uk
Lincoln County Hospital,Greetwell Road,,,Lincoln,Lincolnshire,LN2 5QY,53.23357773,-0.51962018,United Lincolnshire Hospitals NHS Trust,http://www.ulh.nhs.uk
Pilgrim Hospital,Sibsey Road,,,Boston,Lincolnshire,PE21 9QS,52.99112701,-0.009952853,United Lincolnshire Hospitals NHS Trust,http://www.ulh.nhs.uk
Grantham and District Hospital,101 Manthorpe Road,Manthorpe Road,,Grantham,Lincolnshire,NG31 8DG,52.92108917,-0.640699148,United Lincolnshire Hospitals NHS Trust,http://www.ulh.nhs.uk
The Johnson Community Hospital - United Lincolnshire Hospitals NHS Trust,Spalding Road,Pinchbeck,,Spalding,Lincolnshire,PE11 3PB,52.80268478,-0.152647898,United Lincolnshire Hospitals NHS Trust,www.lincolnshire.nhs.uk
St Mary's Hospital,Leicestershire County and Rutland PCT,Thorpe Road,,Melton Mowbray,Leicestershire,LE13 1SJ,52.76593781,-0.877281189,University Hospitals Of Leicester NHS Trust,http://www.uhl-tr.nhs.uk/our-services/medical-services/i-n/maternity-services/st-marys-birth-centre
Leicester Royal Infirmary,Leicester Royal Infirmary,Infirmary Square,,Leicester,Leicestershire,LE1 5WW,52.62659073,-1.135299921,University Hospitals Of Leicester NHS Trust,http://www.leicestershospitals.nhs.uk
Glenfield Hospital,,Groby Road,,Leicester,Leicestershire,LE3 9QP,52.65436554,-1.180003047,University Hospitals Of Leicester NHS Trust,http://www.leicestershospitals.nhs.uk
Leicester General Hospital,,Gwendolen Road,,Leicester,Leicestershire,LE5 4PW,52.62992859,-1.081749201,University Hospitals Of Leicester NHS Trust,http://www.leicestershospitals.nhs.uk
Maidstone Hospital,Maidstone Hospital,Hermitage Lane,,Maidstone,Kent,ME16 9QQ,51.27366257,0.483988225,Maidstone and Tunbridge Wells NHS Trust,http://www.mtw.nhs.uk/
Tunbridge Wells Hospital at Pembury,Tunbridge Wells Hospital,Pembury,,Tunbridge Wells,Kent,TN2 4QJ,51.14845276,0.307484597,Maidstone and Tunbridge Wells NHS Trust,http://www.mtw.nhs.uk
Watford General Hospital,Vicarage Road,,,Watford,Hertfordshire,WD18 0HB,51.64892197,-0.404173046,West Hertfordshire Hospitals NHS Trust,http://www.westhertshospitals.nhs.uk
St Albans City Hospital,Waverley Road,,,St. Albans,Hertfordshire,AL3 5PN,51.76007462,-0.343948692,West Hertfordshire Hospitals NHS Trust,http://www.westhertshospitals.nhs.uk
Harpenden Memorial Hospital,,Carlton Road,,Harpenden,,AL5 4TA,51.81905365,-0.352944642,West Hertfordshire Hospitals NHS Trust,http://www.westhertshospitals.nhs.uk
Hemel Hempstead Hospital,,Hillfield Road,,Hemel Hempstead,Hertfordshire,HP2 4AD,51.75083923,-0.468585968,West Hertfordshire Hospitals NHS Trust,http://www.westhertshospitals.nhs.uk
Lister Hospital,Coreys Mill Lane,,,Stevenage,Hertfordshire,SG1 4AB,51.92461014,-0.212711543,East and North Hertfordshire NHS Trust,http://www.enherts-tr.nhs.uk
Queen Elizabeth I I Hospital,Howlands,Howlands,,Welwyn Garden City,Hertfordshire,AL7 4HQ,51.78282928,-0.187686712,East and North Hertfordshire NHS Trust,http://www.newqeii.info/
Hertford County Hospital,,North Road,,Hertford,Hertfordshire,SG14 1LP,51.79648972,-0.088494822,East and North Hertfordshire NHS Trust,http://www.enherts-tr.nhs.uk/our-hospitals/hertford-county/
Stepping Hill Hospital,Poplar Grove,Hazel Grove,,Stockport,Cheshire,SK2 7JE,53.38378143,-2.132004976,Stockport NHS Foundation Trust,http://www.stockport.nhs.uk
The Tower Hamlets Centre For Mental Health,Bancroft Road,Mile End,,London,Greater London,E1 4DG,51.5250473,-0.04219196,East London NHS Foundation Trust,http://www.elcmht.nhs.uk
Alexandra Hospital,Woodrow Drive,,,Redditch,Worcestershire,B98 7UB,52.27977753,-1.912112117,Worcestershire Acute Hospitals NHS Trust,http://www.worcsacute.nhs.uk/our-hospitals/alexandra-hospital-redditch
Kidderminster Hospital & Treatment Centre,,Bewdley Road,,Kidderminster,Worcestershire,DY11 6RJ,52.3851738,-2.261321783,Worcestershire Acute Hospitals NHS Trust,http://www.worcsacute.nhs.uk/our-hospitals/kidderminster-hospital-and-treatment-centre
Worcestershire Royal Hospital,Charles Hastings Way,,,Worcester,Worcestershire,WR5 1DD,52.19151688,-2.179341078,Worcestershire Acute Hospitals NHS Trust,http://www.worcsacute.nhs.uk/our-hospitals/worcestershire-royal-hospital/
Wonford House,,Dryden Road,,Exeter,Devon,EX2 5AF,50.7154007,-3.506284475,Devon Partnership NHS Trust,http://www.dpt.nhs.uk
Franklyn Community Hospital,Franklyn Drive,,,Exeter,Devon,EX2 9HS,50.7124176,-3.549404383,Devon Partnership NHS Trust,
Halton General Hospital,,Hospital Way,,Runcorn,Cheshire,WA7 2DA,53.32327271,-2.694666147,Warrington and Halton Hospitals NHS Foundation Trust,http://www.whh.nhs.uk
Warrington Hospital,Warrington Hospital,Lovely Lane,,Warrington,Cheshire,WA5 1QG,53.39397812,-2.610702753,Warrington and Halton Hospitals NHS Foundation Trust,http://www.whh.nhs.uk
Prospect Park Hospital,Honey End Lane,Tilehurst,,Reading,Berkshire,RG30 4EJ,51.44914627,-1.014733672,Berkshire Healthcare NHS Foundation Trust,http://www.berkshirehealthcare.nhs.uk/ServiceCatInfo.asp?id=102
Huddersfield Royal Infirmary,Acre Street,Acre Street,,Huddersfield,West Yorkshire,HD3 3EA,53.65547562,-1.816323161,Calderdale and Huddersfield NHS Foundation Trust,http://www.cht.nhs.uk
Calderdale Royal Hospital,Salterhebble,,,Halifax,West Yorkshire,HX3 0PW,53.70482254,-1.857493639,Calderdale and Huddersfield NHS Foundation Trust,http://www.cht.nhs.uk
Nottingham University Hospitals NHS Trust - City Campus,Nottingham City Hospital,Hucknall Road,,Nottingham,Nottinghamshire,NG5 1PB,52.9909935,-1.159877777,Nottingham University Hospitals NHS Trust,http://www.nuh.nhs.uk
Nottingham University Hospitals NHS Trust - Queen's Medical Centre Campus,Derby Road,,,Nottingham,Nottinghamshire,NG7 2UH,52.94380188,-1.185941815,Nottingham University Hospitals NHS Trust,http://www.nuh.nhs.uk
Aldrington Centre,35 New Church Road,Aldrington Centre,,Hove,East Sussex,BN3 4AG,50.83014679,-0.184233904,Sussex Partnership NHS Foundation Trust,http://www.sussexpartnership.nhs.uk/location-aldrington-centre
Mill View Hospital,,Nevill Avenue,,Hove,,BN3 7HY,50.84204102,-0.189752132,Sussex Partnership NHS Foundation Trust,http://www.sussexpartnership.nhs.uk/location-mill-view-hospital
Acre Day Hospital,29 Wordsworth Road,Acre Day Hospital,,Worthing,West Sussex,BN11 3NJ,50.80953217,-0.382770181,Sussex Partnership NHS Foundation Trust,http://www.sussexpartnership.nhs.uk/location-acre-day-hospital
The Hellingly Centre,The Drive,,,Hailsham,,BN27 4EP,50.8896637,0.26220718,Sussex Partnership NHS Foundation Trust,http://www.sussexpartnership.nhs.uk/location-hellingly-centre
Amberstone Hospital,Carters Corner,Amberstone Hospital,,Hailsham,East Sussex,BN27 4HU,50.88183212,0.275532901,Sussex Partnership NHS Foundation Trust,http://www.sussexpartnership.nhs.uk/location-amberstone-hospital
Langley Green Hospital,,Martyrs Avenue,,Crawley,West Sussex,RH11 7EJ,51.13195419,-0.189015657,Sussex Partnership NHS Foundation Trust,http://www.sussexpartnership.nhs.uk/location-langley-green-hospital
"Tees, Esk, Wear Valley NHS Trust (Durham)",Trust Headquarters,West Park Hospital,Edward Pease Way,Darlington,County Durham,DL2 2TS,54.54356766,-1.59113729,"Tees, Esk and Wear Valleys NHS Foundation Trust",
"Auckland Park Hospital, Bishop Auckland",,Westfield Road,,Bishop Auckland,Durham,DL14 6AE,54.65484238,-1.680740595,"Tees, Esk and Wear Valleys NHS Foundation Trust",http://www.tewv.nhs.uk/aucklandparkhospital
"West Lane Hospital, Middlesbrough",,Acklam Road,,Middlesbrough,,TS5 4EE,54.56212616,-1.257134318,"Tees, Esk and Wear Valleys NHS Foundation Trust",http://www.tewv.nhs.uk/westlanehospital
"West Park Hospital, Darlington",,Edward Pease Way,,Darlington,Durham,DL2 2TS,54.54356766,-1.59113729,"Tees, Esk and Wear Valleys NHS Foundation Trust",http://www.tewv.nhs.uk/westparkhospital
"Sandwell Park Hospital, Hartlepool",,Lancaster Road,,Hartlepool,,TS24 8LN,54.69326782,-1.212324739,"Tees, Esk and Wear Valleys NHS Foundation Trust",http://www.tewv.nhs.uk/sandwellpark
"Cross Lane Hospital, Scarborough",Cross Lane,,,Scarborough,North Yorkshire,YO12 6DN,54.29606247,-0.424973875,"Tees, Esk and Wear Valleys NHS Foundation Trust",http://www.tewv.nhs.uk/crosslanehospital
Hopewood Park,Ryhope,,,Sunderland,Tyne and Wear,SR2 0NB,54.86393738,-1.369304776,"Northumberland, Tyne and Wear NHS Foundation Trust",http://www.ntw.nhs.uk
Ferndene,Ferndene,Moor Road,,Prudhoe,Northumberland,NE42 5PB,54.94983292,-1.841312885,"Northumberland, Tyne and Wear NHS Foundation Trust",
St Georges Hospital (Morpeth),St Georges Hospital,,,Morpeth,Northumberland,NE61 2NU,55.17856216,-1.682789326,"Northumberland, Tyne and Wear NHS Foundation Trust",http://www.ntw.nhs.uk/sites.php?site=3
St Nicholas Hospital (Newcastle-upon-Tyne),Jubilee Road,Gosforth,,Newcastle Upon Tyne,Tyne and Wear,NE3 3XT,55.0064888,-1.633084178,"Northumberland, Tyne and Wear NHS Foundation Trust",http://www.ntw.nhs.uk
Monkwearmouth Hospital,,Newcastle Road,,Sunderland,Tyne and Wear,SR5 1NB,54.9245491,-1.386769295,"Northumberland, Tyne and Wear NHS Foundation Trust",http://sunderlandiapt.co.uk/
Bowmere Hospital,,The Countess Of Chester Health Park,Liverpool Road,Chester,Cheshire,CH2 1BQ,53.21154785,-2.898810625,Cheshire and Wirral Partnership NHS Foundation Trust,http://www.cwp.nhs.uk
Conquest Hospital,The Ridge,,,St. Leonards-on-Sea,East Sussex,TN37 7RD,50.88516617,0.567284167,East Sussex Healthcare NHS Trust,http://www.esht.nhs.uk/conquest
Eastbourne District General Hospital,Kings Drive,,,Eastbourne,East Sussex,BN21 2UD,50.78696823,0.271121651,East Sussex Healthcare NHS Trust,http://www.esht.nhs.uk/eastbournedgh
Bexhill Hospital,,Holliers Hill,,Bexhill-on-Sea,Sussex,TN40 2DZ,50.85070419,0.475511163,East Sussex Healthcare NHS Trust,http://www.esht.nhs.uk/bexhill
Tickhill Road Hospital,Rotherham Doncaster and South Humber NHS Foundation Trust,Weston Road,"Tickhill Road, Balby",Doncaster,,DN4 8QN,53.49616241,-1.144652247,Rotherham Doncaster and South Humber NHS Foundation Trust,http://www.rdash.nhs.uk
Pontefract Hospital,Friarwood Lane,Friarwood Lane,,Pontefract,West Yorkshire,WF8 1PL,53.69047928,-1.308131099,Mid Yorkshire Hospitals NHS Trust,http://www.midyorks.nhs.uk
Pinderfields Hospital,Pinderfields Hospital,Aberford Road,,Wakefield,West Yorkshire,WF1 4DG,53.69242096,-1.488540292,Mid Yorkshire Hospitals NHS Trust,http://www.midyorks.nhs.uk
Dewsbury and District Hospital,,Halifax Road,,Dewsbury,West Yorkshire,WF13 4HS,53.70225525,-1.651861906,Mid Yorkshire Hospitals NHS Trust,http://www.midyorks.nhs.uk
"Fieldhead, Wakefield",,Ouchthorpe Lane,,Wakefield,West Yorkshire,WF1 3SP,53.69734192,-1.494039178,South West Yorkshire Partnership NHS Foundation Trust,http://www.southwestyorkshire.nhs.uk
"Castleford, Normanton and District Hospital, Wakefield",Lumley Street,,,Castleford,West Yorkshire,WF10 5LT,53.71900558,-1.370944738,South West Yorkshire Partnership NHS Foundation Trust,http://www.southwestyorkshire.nhs.uk
"Kendray Hospital, Barnsley",Kendray Hospital,Doncaster Road,,Barnsley,South Yorkshire,S70 3RD,53.54695511,-1.454602242,South West Yorkshire Partnership NHS Foundation Trust,http://www.southwestyorkshire.nhs.uk
"Mount Vernon Hospital, Barnsley",,Mount Vernon Road,,Barnsley,,S70 4DP,53.53731155,-1.472711682,South West Yorkshire Partnership NHS Foundation Trust,http://www.southwestyorkshire.nhs.uk
Royal Sussex County Hospital,Eastern Road,,,Brighton,East Sussex,BN2 5BE,50.81946945,-0.118162483,Brighton and Sussex University Hospitals NHS Trust,http://www.bsuh.nhs.uk
Brighton General Hospital,Elm Grove,,,Brighton,East Sussex,BN2 3EW,50.83045959,-0.115462601,Brighton and Sussex University Hospitals NHS Trust,http://www.sussexcommunity.nhs.uk/
Royal Alexandra Children's Hospital,Eastern Road,,,Brighton,East Sussex,BN2 5BE,50.81946945,-0.118162483,Brighton and Sussex University Hospitals NHS Trust,http://www.bsuh.nhs.uk
Sussex Eye Hospital,Eastern Road,,,Brighton,East Sussex,BN2 5BF,50.81879425,-0.117621705,Brighton and Sussex University Hospitals NHS Trust,http://www.bsuh.nhs.uk
Princess Royal Hospital,Lewes Road,,,Haywards Heath,West Sussex,RH16 4EX,50.9910965,-0.090267994,Brighton and Sussex University Hospitals NHS Trust,http://www.bsuh.nhs.uk
Sandwell District General Hospital,Lyndon,,,West Bromwich,West Midlands,B71 4HJ,52.52735901,-1.987869978,Sandwell and West Birmingham Hospitals NHS Trust,http://www.swbh.nhs.uk
City Hospital,Dudley Road,Dudley Road,,Birmingham,West Midlands,B18 7QH,52.4886322,-1.932492137,Sandwell and West Birmingham Hospitals NHS Trust,http://www.swbh.nhs.uk
Rowley Regis Hospital,Moor Lane,,,Rowley Regis,West Midlands,B65 8DA,52.48070145,-2.052065849,Sandwell and West Birmingham Hospitals NHS Trust,http://www.swbh.nhs.uk/
Blackpool Victoria Hospital,Whinney Heys Road,,,Blackpool,Lancashire,FY3 8NR,53.82066727,-3.016264915,Blackpool Teaching Hospitals NHS Foundation Trust,http://www.bfwhospitals.nhs.uk
Clifton Hospital,Pershore Road,,,Lytham St. Annes,Lancashire,FY8 1PB,53.74440002,-3.007417679,Blackpool Teaching Hospitals NHS Foundation Trust,http://www.bfwh.nhs.uk
Chorley and South Ribble Hospital,Chorley and South Ribble Hospital,Preston Road,,Chorley,Lancashire,PR7 1PP,53.66584396,-2.635241508,Lancashire Teaching Hospitals NHS Foundation Trust,http://www.lancsteachinghospitals.nhs.uk
Royal Preston Hospital,Sharoe Green Lane North,Fulwood,,Preston,Lancashire,PR2 9HT,53.79135513,-2.707388639,Lancashire Teaching Hospitals NHS Foundation Trust,http://www.lancsteachinghospitals.nhs.uk
Bishop Auckland Hospital,Cockton Hill Road,,,Bishop Auckland,County Durham,DL14 6AD,54.65584946,-1.678531766,County Durham and Darlington NHS Foundation Trust,http://www.cddft.nhs.uk/
Chester Le Street Hospital,Front Street,,,Chester Le Street,County Durham,DH3 3AT,54.85093689,-1.575047731,County Durham and Darlington NHS Foundation Trust,http://www.cddft.nhs.uk/
University Hospital Of North Durham,North Road,,,Durham,County Durham,DH1 5TW,54.78850174,-1.593818784,County Durham and Darlington NHS Foundation Trust,http://www.cddft.nhs.uk/
Shotley Bridge Hospital,Shotley Bridge Hospital,Shotley Bridge,,Consett,County Durham,DH8 0NB,54.8690834,-1.842782617,County Durham and Darlington NHS Foundation Trust,http://www.cddft.nhs.uk
Darlington Memorial Hospital,Hollyhurst Road,,,Darlington,County Durham,DL3 6HX,54.53037643,-1.563717365,County Durham and Darlington NHS Foundation Trust,http://www.cddft.nhs.uk
Stoke Mandeville Hospital,,Mandeville Road,Aylesbury,Buckinghamshire,,HP21 8AL,51.79830933,-0.802742839,Buckinghamshire Healthcare NHS Trust,http://www.buckshealthcare.nhs.uk/For%20patients%20and%20visitors/stoke-mandeville-hospital.htm
Wycombe Hospital,Wycombe Hospital,Queen Alexandra Road,,High Wycombe,Buckinghamshire,HP11 2TT,51.62644196,-0.753413498,Buckinghamshire Healthcare NHS Trust,http://www.buckshealthcare.nhs.uk
Amersham Hospital,Amersham Hospital,Whielden Street,,Amersham,Buckinghamshire,HP7 0JD,51.66294861,-0.621373355,Buckinghamshire Healthcare NHS Trust,http://www.buckshealthcare.nhs.uk/For%20patients%20and%20visitors/amersham-hospital.htm
Buckingham Community Hospital,,High Street,,Buckingham,,MK18 1NU,52.00126648,-0.986432612,Buckinghamshire Healthcare NHS Trust,http://www.buckshealthcare.nhs.uk
Thame Community Hospital,,East Street,,Thame,,OX9 3JT,51.74531555,-0.969993711,Buckinghamshire Healthcare NHS Trust,http://www.buckshealthcare.nhs.uk
Chalfonts and Gerrards Cross Hospital,,Hampden Road,,Chalfont St Peter,,SL9 9DR,51.60741043,-0.561796904,Buckinghamshire Healthcare NHS Trust,http://www.buckshealthcare.nhs.uk
Marlow Community Hospital,,Victoria Road,,Marlow,,SL7 1DJ,51.57357025,-0.770415902,Buckinghamshire Healthcare NHS Trust,http://www.buckshealthcare.nhs.uk
Burnley General Hospital,Burnley General Hospital,Casterton Avenue,,Burnley,,BB10 2PQ,53.81042862,-2.227864027,East Lancashire Hospitals NHS Trust,http://www.elht.nhs.uk
Royal Blackburn Hospital,Haslingden Road,Haslingden Road,,Blackburn,Lancashire,BB2 3HH,53.73556519,-2.462701321,East Lancashire Hospitals NHS Trust,http://www.elht.nhs.uk
Pendle Community Hospital,Leeds Road,Leeds Rd,,Nelson,Lancashire,BB9 9SZ,53.83680725,-2.213449717,East Lancashire Hospitals NHS Trust,http://www.elht.nhs.uk
Accrington Victoria Hospital,,Hayward Road,,,,BB5 6AS,53.75958633,-2.366906404,East Lancashire Hospitals NHS Trust,
Clitheroe Community Hospital,,Chatburn Road,,,,BB7 4JX,53.88528824,-2.365998745,East Lancashire Hospitals NHS Trust,
Prestwich Hospital,Bury New Road,Prestwich,,Manchester,Greater Manchester,M25 3BL,53.53675079,-2.291450739,Greater Manchester Mental Health NHS Foundation Trust,https://www.gmw.nhs.uk/
Royal Shrewsbury Hospital,,Mytton Oak Road,,Shrewsbury,Shropshire,SY3 8XQ,52.70936203,-2.793737411,Shrewsbury and Telford Hospital NHS Trust,http://www.sath.nhs.uk/
The Princess Royal Hospital,Apley Castle,Grainger Drive,,Telford,Shropshire,TF1 6TF,52.71211243,-2.511476278,Shrewsbury and Telford Hospital NHS Trust,http://www.sath.nhs.uk
Farnham Road Hospital,Farnham Road,,,Guildford,Surrey,GU2 7LX,51.23509216,-0.584450543,Surrey and Borders Partnership NHS Foundation Trust,http://www.sabp.nhs.uk
Farnham Hospital,Hale Road,Surrey,,Farnham,Surrey,GU9 9QL,51.22049332,-0.784627557,Surrey and Borders Partnership NHS Foundation Trust,
St Martin's Hospital,,Littlebourne Road,,Canterbury,Kent,CT1 1TD,51.27685547,1.106185555,Kent and Medway NHS and Social Care Partnership Trust,http://www.kmpt.nhs.uk
Littlebrook Hospital,Bow Arrow Lane,Stone,,Dartford,Kent,DA2 6PB,51.44661713,0.240827769,Kent and Medway NHS and Social Care Partnership Trust,http://www.kmpt.nhs.uk
Colman Hospital,,Unthank Road,,Norwich,,NR2 2PJ,52.62220001,1.263663769,Norfolk Community Health and Care NHS Trust,
Norwich Community Hospital,,Bowthorpe Road,,Norwich,,NR2 3TU,52.63375092,1.262380838,Norfolk Community Health and Care NHS Trust,http://www.norfolkcommunityhealthandcare.nhs.uk
Dereham Hospital,,Northgate,,Dereham,Norfolk,NR19 2EX,52.69001389,0.945718586,Norfolk Community Health and Care NHS Trust,http://www.nchc.nhs.uk
North Walsham Hospital,North Walsham and District War Memorial Hospital,Yarmouth Road,,North Walsham,Norfolk,NR28 9AP,52.81424332,1.387143493,Norfolk Community Health and Care NHS Trust,http://www.norfolkcommunityhealthandcare.nhs.uk
Kelling Hospital,,High Kelling,,Holt,Norfolk,NR25 6QA,52.91447449,1.1160568,Norfolk Community Health and Care NHS Trust,http://www.norfolkcommunityhealthandcare.nhs.uk
Swaffham Community Hospital,,Sporle Road,,Swaffham,Norfolk,PE37 7HL,52.65103531,0.691982388,Norfolk Community Health and Care NHS Trust,http://www.norfolkcommunityhealthandcare.nhs.uk
Skegness and District General Hospital,,Dorothy Avenue,,Skegness,,PE25 2BS,53.14517975,0.332272351,Lincolnshire Community Health Services NHS Trust,
John Coupland Hospital,,Ropery Road,,Gainsborough,Lincolnshire,DN21 2TJ,53.41184616,-0.78477639,Lincolnshire Community Health Services NHS Trust,http://www.lincolnshirecommunityhealthservices.nhs.uk/content/john-coupland-hospital
Whitworth Hospital,,330 Bakewell Road,,,,DE4 2JD,53.1509285,-1.575200796,Derbyshire Community Health Services NHS Foundation Trust,http://www.dchs.nhs.uk/home_redesign/our-services/find_services_by_location/whitworthhospital/
Walton Hospital,Walton Hospital,Whitecotes Lane,,Chesterfield,Derbyshire,S40 3HW,53.22159195,-1.442568302,Derbyshire Community Health Services NHS Foundation Trust,http://www.dchs.nhs.uk/home_redesign/our-services/find_services_by_location/waltonhospital/
Babington Hospital,Babington Hospital,Derby Road,Belper,Derby,Derbyshire,DE56 1WH,53.0189476,-1.485832691,Derbyshire Community Health Services NHS Foundation Trust,http://www.dchs.nhs.uk/home_redesign/our-services/find_services_by_location/babington-hospital/
Ripley Hospital,,Sandham Lane,,,,DE5 3HE,53.04698563,-1.412392139,Derbyshire Community Health Services NHS Foundation Trust,http://www.dchs.nhs.uk/home_redesign/our-services/find_services_by_location/ripleyhospital/
Newholme Hospital,,Baslow Road,,,,DE45 1AD,53.21879578,-1.672325253,Derbyshire Community Health Services NHS Foundation Trust,http://www.dchs.nhs.uk/home_redesign/our-services/find_services_by_location/newholmehospital/
Clay Cross Hospital,,Market Street,,Chesterfield,Derbyshire,S45 9NZ,53.16793442,-1.407211781,Derbyshire Community Health Services NHS Foundation Trust,http://www.dchs.nhs.uk/home_redesign/our-services/find_services_by_location/claycross_hospital/
Bolsover Hospital,,Welbeck Road,,,,S44 6DH,53.23181152,-1.283066273,Derbyshire Community Health Services NHS Foundation Trust,http://www.dchs.nhs.uk/home_redesign/our-services/find_services_by_location/bolsoverhospital/
Cavendish Hospital,,Manchester Road,,,,SK17 6TE,53.26244736,-1.92124033,Derbyshire Community Health Services NHS Foundation Trust,http://www.dchs.nhs.uk/home_redesign/our-services/find_services_by_location/cavendishhospital/
Ilkeston Community Hospital,,Heanor Road,,,,DE7 8LN,52.98809433,-1.320802927,Derbyshire Community Health Services NHS Foundation Trust,http://www.dchs.nhs.uk/home_redesign/our-services/find_services_by_location/ilkeston/
St Michael's Hospital,,St Michael's Road,,Warwick,Warwickshire,CV34 5QW,52.28853607,-1.594077587,Coventry and Warwickshire Partnership NHS Trust,
Brooklands Hospital,Coleshill Road,Marston Green,,Birmingham,West Midlands,B37 7HL,52.47120285,-1.744087577,Coventry and Warwickshire Partnership NHS Trust,
St Mary's Hospital (HQ),Praed Street,,,London,,W2 1NY,51.51697159,-0.173555061,Imperial College Healthcare NHS Trust,https://www.imperial.nhs.uk/our-locations/st-marys-hospital
Charing Cross Hospital,,Fulham Palace Road,,London,,W6 8RF,51.48704529,-0.219920978,Imperial College Healthcare NHS Trust,https://www.imperial.nhs.uk/our-locations/charing-cross-hospital
Hammersmith Hospital,Du Cane Road,,,London,,W12 0HS,51.51742172,-0.234706819,Imperial College Healthcare NHS Trust,https://www.imperial.nhs.uk/our-locations/hammersmith-hospital
Queen Charlotte's Hospital,Du Cane Road,,,London,,W12 0HS,51.51742172,-0.234706819,Imperial College Healthcare NHS Trust,https://www.imperial.nhs.uk/our-locations/queen-charlottes-and-chelsea-hospital
Western Eye Hospital,153-173 Marylebone Road,,,London,,NW1 5QH,51.52070236,-0.163315639,Imperial College Healthcare NHS Trust,https://www.imperial.nhs.uk/our-locations/western-eye-hospital
Bloxwich Hospital ,Reeves Street,,,Walsall,West Midlands,WS3 2JJ,52.61375427,-2.004830837,Dudley and Walsall Mental Health Partnership NHS Trust,
Dorothy Pattison Hospital,Alumwell Close,,,Walsall,West Midlands,WS2 9XH,52.58213425,-2.002421618,Dudley and Walsall Mental Health Partnership NHS Trust,
Bushey Fields Hospital,Bushey Fields Road,,,Dudley,West Midlands,DY1 2LZ,52.50290298,-2.116838217,Dudley and Walsall Mental Health Partnership NHS Trust,
Southlands Hospital,Upper Shoreham Road,,,Shoreham-By-Sea,West Sussex,BN43 6TQ,50.84075928,-0.256132513,Western Sussex Hospitals NHS Foundation Trust,http://www.westernsussexhospitals.nhs.uk/
St Richard's Hospital,Spitalfield Lane,,,Chichester,West Sussex,PO19 6SE,50.84355545,-0.768012762,Western Sussex Hospitals NHS Foundation Trust,http://www.westernsussexhospitals.nhs.uk/
Worthing Hospital,Lyndhurst Road,,,Worthing,West Sussex,BN11 2DH,50.81669235,-0.363415062,Western Sussex Hospitals NHS Foundation Trust,http://www.westernsussexhospitals.nhs.uk/
Brookfields Hospital,,351 Mill Road,,Cambridge,Cambridgeshire,CB1 3DF,52.19714355,0.150759131,Cambridgeshire Community Services NHS Trust,
North Cambridgeshire Hospital,,The Park,,Wisbech,Cambridgeshire,PE13 3AB,52.66493607,0.163927913,Cambridgeshire Community Services NHS Trust,http://www.cambscommunityservices.nhs.uk/
Princess Of Wales Hospital,Lynn Road,Lynn Road,,Ely,Cambridgeshire,CB6 1DN,52.41328049,0.274972767,Cambridgeshire Community Services NHS Trust,http://www.cambscommunityservices.nhs.uk
Doddington Hospital,Benwick Road,Doddington,,March,Cambridgeshire,PE15 0UG,52.49989319,0.055862084,Cambridgeshire Community Services NHS Trust,http://www.cambscommunityservices.nhs.uk/
Birmingham Dental Hospital and School of Dentistry,,5 Mill Pool Way,,Birmingham (SatNav B5 7SA),,B5 7EG,52.45087051,-1.914299846,Birmingham Community Healthcare NHS Foundation Trust,http://www.bhamcommunity.nhs.uk/dental-hospital
Moseley Hall Hospital,,Alcester Road,,Birmingham,,B13 8JL,52.44592667,-1.892876983,Birmingham Community Healthcare NHS Foundation Trust,http://www.bhamcommunity.nhs.uk
West Heath Hospital,West Heath Hospital,Rednal Road,,Birmingham,West Midlands,B38 8HR,52.39820862,-1.953763843,Birmingham Community Healthcare NHS Foundation Trust,
Faversham Cottage Hospital,Stone Street,,,Faversham,Kent,ME13 8PS,51.31455231,0.887836456,Kent Community Health NHS Foundation Trust,http://www.kentcht.nhs.uk
Queen Victoria Memorial Hospital,King Edward Avenue,,,Herne Bay,Kent,CT6 6EB,51.36788177,1.142894864,Kent Community Health NHS Foundation Trust,http://www.kentcht.nhs.uk
Sheppey Community Hospital,Plover Road,Minster On Sea,,Sheerness,Kent,ME12 3LT,51.41540909,0.793075562,Kent Community Health NHS Foundation Trust,http://www.kentcht.nhs.uk
Sittingbourne Memorial Hospital,Bell Road,,,Sittingbourne,Kent,ME10 4DT,51.33459854,0.736556947,Kent Community Health NHS Foundation Trust,http://www.kentcht.nhs.uk
"Victoria Hospital, Deal",Victoria Hospital,London Road,,Deal,Kent,CT14 9UA,51.21939087,1.389496326,Kent Community Health NHS Foundation Trust,http://www.kentcht.nhs.uk
Whitstable and Tankerton Hospital,Whitstable and Tankerton Hospital,Northwood Road,Tankerton,Whitstable,Kent,CT5 2HN,51.36136246,1.050066829,Kent Community Health NHS Foundation Trust,http://www.kentcht.nhs.uk
Edenbridge War Memorial Hospital,Edenbridge and District War Memorial Hospital,Mill Hill,,Edenbridge,Kent,TN8 5DA,51.19065475,0.066651031,Kent Community Health NHS Foundation Trust,http://www.kentcht.nhs.uk
Hawkhurst Hospital,Hawkhurst Community Hospital,High Street,Hawkhurst,Cranbrook,Kent,TN18 4PU,51.04884338,0.489031434,Kent Community Health NHS Foundation Trust,http://www.kentcht.nhs.uk
Sevenoaks Hospital,Sevenoaks Hospital,Hospital Road,,Sevenoaks,Kent,TN13 3PG,51.28826523,0.194744304,Kent Community Health NHS Foundation Trust,http://www.kentcht.nhs.uk
Tonbridge Cottage Hospital,Tonbridge Cottage Hospital,Vauxhall Lane,,Tonbridge,Kent,TN11 0NE,51.17807007,0.273479372,Kent Community Health NHS Foundation Trust,http://www.kentcht.nhs.uk
Lynfield Mount Hospital,Heights Lane,,,Bradford,West Yorkshire,BD9 6DP,53.80973053,-1.805339217,Bradford District NHS Foundation Trust,http://www.bdct.nhs.uk
Edward Street Hospital,Edward Street,Edward Street,,West Bromwich,,B70 8NL,52.51922607,-1.998733521,Black Country Partnership NHS Foundation Trust,http://www.bcpft.nhs.uk
Heath Lane Hospital,Heath Lane,,,West Bromwich,West Midlands,B71 2BG,52.53797913,-1.991980553,Black Country Partnership NHS Foundation Trust,
Hallam Street Hospital,Hallam Street,Hallam Street,,West Bromwich,,B71 4NH,52.52781677,-1.986425281,Black Country Partnership NHS Foundation Trust,http://www.bcpft.nhs.uk
Elmhurst Intermediate Care Centre,,Roehurst Lane,,Winsford,Cheshire,CW7 2DF,53.19568634,-2.531615973,Mid Cheshire Hospitals NHS Foundation Trust,http://www.mcht.nhs.uk
Nottingham University Hospitals NHS Trust - Ropewalk House,,113 The Ropewalk,,Nottingham,,NG1 6HA,52.95198059,-1.156332135,Nottingham University Hospitals NHS Trust,
Ambrose House,,Meteor Court,Barnett Way,Barnwood,Gloucestershire,GL4 3GG,51.8657341,-2.204752445,2gether NHS Foundation Trust,http://www.2gether.nhs.uk/services-for-people-with-learning-disabilities
Goodmayes Hospital,,Barley Lane,Goodmayes,Ilford,Essex,IG3 8XJ,51.57799149,0.11050193,North East London NHS Foundation Trust,
Arundel & District Hospital,Arundel & District Hospital,Chichester Road,Arundel,Arundel,Sussex,BN18 0AB,50.85447693,-0.565244734,Sussex Community NHS Foundation Trust,http://www.sussexcommunity.nhs.uk/services
Townend Court,,296 Cottingham Road,,Hull,,HU6 8QG,53.77056503,-0.376976818,Humber NHS Foundation Trust,http://www.humber.nhs.uk
Brampton War Memorial Hospital,,6 Tree Road,,Brampton,Cumbria,CA8 1TX,54.9386673,-2.727175951,Cumbria Partnership NHS Foundation Trust,https://www.cumbriapartnership.nhs.uk/where-we-work/brampton-war-memorial-hospital
Alston Ruth Lancaster James Hospital,,Alston,,Cumbria,,CA9 3QX,54.81020737,-2.439829111,Cumbria Partnership NHS Foundation Trust,https://www.cumbriapartnership.nhs.uk/where-we-work/ruth-lancaster-james-community-hospital
Wigton Community Hospital,,Cross Lane,,Wigton,,CA7 9DD,54.83044434,-3.171386957,Cumbria Partnership NHS Foundation Trust,http://www.cumbriapartnership.nhs.uk
Workington Community Hospital,,Park Lane,,Workington,,CA14 2RW,54.64269257,-3.55132699,Cumbria Partnership NHS Foundation Trust,http://www.cumbriapartnership.nhs.uk
Walkergate Park Hospital,,Benfield Road,,Newcastle-upon-Tyne,Tyne and Wear,NE6 4QD,54.98936844,-1.561600447,"Northumberland, Tyne and Wear NHS Foundation Trust",http://www.ntw.nhs.uk
The Longley Centre,,Norwood Grange Drive,,Sheffield,,S5 7JT,53.41022873,-1.46014297,Sheffield Health and Social Care NHS Foundation Trust,http://www.shsc.nhs.uk
Forest Close,,1A & 1-4 Forest Close,,,,S35 0JW,53.42111969,-1.520314932,Sheffield Health and Social Care NHS Foundation Trust,
Forest Lodge,,5 Forest Close,,,,S35 0JW,53.42111969,-1.520314932,Sheffield Health and Social Care NHS Foundation Trust,
Townlands Memorial Hospital - Oxford Health NHS Foundation Trust ,,York Road,,Henley-on-Thames,Oxfordshire,RG9 2EB,51.53946686,-0.909673631,Oxford Health NHS Foundation Trust,
Newham Centre for Mental Health,,Cherry Tree Way,Glen Road,London,,E13 8SP,51.52047348,0.038419992,East London NHS Foundation Trust,
The John Howard Centre,,12 Kenworthy Road,Homerton,London,,E9 5TD,51.54815674,-0.037709646,East London NHS Foundation Trust,
East Ham Care Centre,,Shrewsbury Road,East Ham,London,,E7 8QP,51.54088974,0.043341372,East London NHS Foundation Trust,
Wokingham Hospital,,41 Barkham Road,,Wokingham,Berkshire,RG41 2XR,51.41040421,-0.843685389,Berkshire Healthcare NHS Foundation Trust,http://www.berkshirehealthcare.nhs.uk/
Richmond Royal Hospital,,Kew Foot Road,,Richmond,,TW9 2TE,51.46671295,-0.300415009,South West London and St George's Mental Health NHS Trust,
Westwood Park Diagnostic Treatment Centre,,Swift Drive,Off Cooper Lane,Bradford,West Yorkshire,BD6 3NL,53.76891708,-1.810428143,Bradford Teaching Hospitals NHS Foundation Trust,
Cygnet Hospital Godden Green,Cygnet Hospital Godden Green,Godden Green,,Sevenoaks,Kent,TN15 0JR,51.27159882,0.23007901,Cygnet Health Care Limited,http://www.cygnethealth.co.uk/locations/godden-green/index.html
Cygnet Hospital Bierley,Bierley Lane,,,Bradford,West Yorkshire,BD4 6AD,53.7685051,-1.732101202,Cygnet Health Care Limited,http://www.cygnethealth.co.uk/locations/bierley/
Cygnet Hospital Kewstoke,Beach Road,Kewstoke,,Weston-Super-Mare,Avon,BS22 9UZ,51.36588669,-2.964132786,Cygnet Health Care Limited,www.cygnethealth.co.uk/locations/kewstoke/
Optegra Eye Hospital Yorkshire,937 Harrogate Road,Apperley Bridge,,Bradford,West Yorkshire,BD10 0RD,53.83239746,-1.710361242,Optegra UK,https://www.optegra.com
Optegra Eye Hospital Guildford,10 Alan Turing Road,Surrey Research Park,,Guildford,Surrey,GU2 7YF,51.24115753,-0.613246143,Optegra UK,https://www.optegra.com
Optegra Eye Hospital Manchester,One Didsbury Point,2 The Avenue,Didsbury,Manchester,Greater Manchester,M20 2EY,53.43009949,-2.249933243,Optegra UK,https://www.optegra.com
Optegra Eye Hospital Hampshire ,3 Fusion,1200 Parkway,Whiteley,Fareham,Hampshire,PO15 7AD,50.87654114,-1.247176766,Optegra UK,https://www.optegra.com
Nightingale Hospital,11-19 Lisson Grove,Marylebone,,London,,NW1 6SH,51.5218544,-0.16512911,Capio UK,http://www.nightingalehospital.co.uk
Brent Urgent Care Centre - Central Middlesex Hospital,Brent Urgent Care Centre - Central Middlesex Hospital,Acton Lane,,London,,NW10 7NS,51.53093719,-0.269146293,Care UK,
St Augustine's Independent Hospital,Cambian Group,Cobridge Road,,Stoke-On-Trent,Staffordshire,ST1 5JY,53.03343964,-2.187804699,Cambian Healthcare Limited,
Ecch Beccles Hospital,St. Marys Road,,,Beccles,Suffolk,NR34 9NQ,52.45414734,1.562366843,East Coast Community Healthcare C.I.C,
Lakeside Medical Diagnostics - Billericay Community Hospital,Billericay Community Hospital,Blunts Wall Road,,Billericay,Essex,CM12 9SA,51.62248611,0.400663167,Lakeside Medical Diagnostics,
St Catherine's Hospital,Church Road,,,Birkenhead,Merseyside,CH42 0LQ,53.3800354,-3.026516199,E-Logica Ltd,
Berkeley Hospital,Marybrook Street,,,Berkeley,Gloucestershire,GL13 9AD,51.69200897,-2.458486319,Gloucestershire Care Services Cic,
Cheltenham General Hospital,Sandford Road,,,Cheltenham,Gloucestershire,GL53 7AN,51.89212418,-2.07186842,Gloucestershire Care Services Cic,
Cirencester Hospital,Tetbury Road,,,Cirencester,Gloucestershire,GL7 1UY,51.71238708,-1.975448966,Gloucestershire Care Services Cic,
Dilke Memorial Hospital,Speech House Road,,,Cinderford,Gloucestershire,GL14 3HX,51.81121063,-2.519848824,Gloucestershire Care Services Cic,
Fairford Hospital,The Croft,,,Fairford,Gloucestershire,GL7 4BB,51.70811462,-1.778166652,Gloucestershire Care Services Cic,
Gloucestershire Royal Hospital,Great Western Road,,,Gloucester,Gloucestershire,GL1 3NN,51.8663826,-2.232058525,Gloucestershire Care Services Cic,
Stroud General Hospital,Trinity Road,,,Stroud,Gloucestershire,GL5 2HY,51.74302673,-2.208121777,Gloucestershire Care Services Cic,
Tetbury Hospital,Malmesbury Road,,,Tetbury,Gloucestershire,GL8 8XB,51.63517761,-2.154729366,Gloucestershire Care Services Cic,
Tewkesbury Hospital,Barton Road,,,Tewkesbury,Gloucestershire,GL20 5QN,51.99226761,-2.153090239,Gloucestershire Care Services Cic,
Ashwood Court Independent Hospital,Woodford Avenue,Lowton,,Warrington,Cheshire,WA3 2RB,53.47247696,-2.575762749,Making Space,
Abbey Sefton Hospital,University Hospital Aintree,Fazakerley Hospital,Lower Lane,Liverpool,Merseyside,L9 7AL,53.46632767,-2.931089401,Abbey Sefton Hospital (University Hospital Aintree),
Royal Hospital For Neuro-Disability (West Hill),West Hill,,,London,Greater London,SW15 3SW,51.45220566,-0.213720351,The Royal Hospital For Neuro-Disability,
Haslemere Hospital - Virgin Care Community Services,Virgin Care,Church Lane,,Haslemere,Surrey,GU27 2BJ,51.09174728,-0.708267331,Virgin Care Ltd,
St. Mary's Hospital,St. Mary's Hospital,Parkhurst Road,,Newport,Isle of Wight,PO30 5TG,50.71084595,-1.301315904,Isle Of Wight NHS Trust,http://www.iow.nhs.uk
Epsom Day Surgery Limited,Alexandra Road,,,Epsom,Surrey,KT17 4BL,51.33446121,-0.255309433,Epsomedical Group,http://www.epsomedical.co.uk/
Aspen - The Holly Private Hospital,,High Road,,Buckhurst Hill,Essex,IG9 5HX,51.62451172,0.032027494,Aspen Healthcare Limited,http://www.theholly.com
Highgate Private Hospital,17 - 19 View Road,,,London,,N6 4DJ,51.57716751,-0.155873492,Aspen Healthcare Limited,http://www.highgatehospital.co.uk
Granville Court,,4 Granville Court,,Hornsea,,HU18 1NQ,53.91754913,-0.164419457,Humber NHS Foundation Trust,http://www.humber.nhs.uk
Hinckley & Bosworth Community Hospital,Ashby Road,,,Hinckley,Leicestershire,LE10 3DA,52.55929565,-1.368169069,Leicestershire Partnership NHS Trust,
Doctors Hospital,64 Dalston Road,,,Carlisle,Cumbria,CA2 5NW,54.88873291,-2.948363304,Jma Healthcare Ltd,
Queen Elizabeth Hospital,Stadium Road,,,London,,SE18 4QH,51.47819138,0.050057109,Lewisham and Greenwich NHS Trust,http://www.lewishamandgreenwich.nhs.uk/
The Priory Hospital Nottingham,Ransom Road,,,Nottingham,Nottinghamshire,NG3 5GS,52.97148132,-1.131278157,Priory Group Limited,http://www.priorygroup.com/nottingham
Ida Darwin Hospital,Cambridge Road,Fulbourn,,Cambridge,Cambridgeshire,CB21 5EE,52.18584824,0.200904787,Serco Ltd,
Rotherham Adult Mental Health Service - Access Team  including Crisis Resolution Service,,142a Aughton Road,Swallownest,Sheffield,South Yorkshire,S26 4TH,53.36781693,-1.321964502,Rotherham Doncaster and South Humber NHS Foundation Trust,
Lydney & District Hospital,Grove Road,,,Lydney,Gloucestershire,GL15 5JE,51.72731781,-2.536882162,Gloucestershire Care Services Cic,
Moore Cottage Hospital,Moore Road,Bourton-On-The-Water,,Cheltenham,Gloucestershire,GL54 2AZ,51.88631058,-1.756776094,Gloucestershire Care Services Cic,
Vale Community Hospital,Kingshill Lane,,,Dursley,Gloucestershire,GL11 4BZ,51.68954086,-2.359164476,Gloucestershire Care Services Cic,
New Moreton Community Hospital,Stow Road,,,Moreton-In-Marsh,Gloucestershire,GL56 0DS,51.98355865,-1.70594275,Gloucestershire Care Services Cic,
Mill View Court - Inpatient Unit,Castle Hill,Castle Road,,Cottingham,Yorkshire(East Riding),HU16 5JQ,53.7767334,-0.444969475,Humber NHS Foundation Trust,http://www.humber.nhs.uk
Hull Nuffield Hospital,Entrance 3,Castle Hill Hospital,Castle Road,Cottingham,Yorkshire(East Riding),HU16 5JQ,53.7767334,-0.444969475,City Health Care Partnership Cic,
Tavistock Hospital,Tavistock Hospital,Spring Hill,Tavistock,Devon,,PL19 8LD,50.54718399,-4.153562546,Livewell Southwest,http://www.livewellsouthwest.co.uk
The Longley Centre,,Norwood Grange Drive,,Sheffield,,S5 7JT,53.41022873,-1.46014297,Sheffield Health and Social Care NHS Foundation Trust,http://www.shsc.nhs.uk
St Georges Hospital,De La Warr Road,Milford On Sea,,Lymington,Hampshire,SO41 0PS,50.72458267,-1.600407839,St Georges Hospital Ltd,
John Munroe Hospital Site,Horton Road,Rudyard,,Leek,Staffordshire,ST13 8RU,53.12484741,-2.084958553,John Munroe Hospital,
Chartwell Hospital,1629 London Road,,,Leigh-On-Sea,Essex,SS9 2SQ,51.54800415,0.637353718,Chartwell Private Hospitals Ltd,http://www.chartwelldiagnostics.co.uk/
St Luke's Hospital,Ellingham Road,,,Attleborough,Norfolk,NR17 1AE,52.52527618,0.991428316,St. Luke's Health Care,
Riverdale Hospital,93 Riverdale Road,Ranmoor,,Sheffield,South Yorkshire,S10 3FE,53.36991501,-1.518530488,Riverdale Grange Limited,
Optegra Eye Hospital North London,"Unit 6, Technology Park",Colindeep Lane,,London,,NW9 6BX,51.59215164,-0.254289329,Optegra UK,https://www.optegra.com
Newcastle General Hospital  (Connect Health),Building 15,Newcastle General Hospital,Westgate Road,Newcastle Upon Tyne,Tyne And Wear,NE4 6BE,54.97624207,-1.644530296,Connect Health,
Woodside Hospital Site,279 Beacon Road,Wibsey,,Bradford,West Yorkshire,BD6 3DQ,53.77084351,-1.801452756,Woodside Hospital,
All Hallows Hospital (Station Road),Station Road,Ditchingham,,Bungay,Suffolk,NR35 2QL,52.46637344,1.446410656,All Hallows Hospital,
"Spencer Private Hospitals, Margate",Spencer Private Hospitals,Queen Elizabeth The Queen Mother Hospital,Ramsgate Road,Margate,Kent,CT9 4BG,51.37719727,1.390478611,East Kent Medical Services Ltd,http://www.spencerprivatehospitals.com
Intensive Support Service ,,32 Firshill Rise,,Sheffield,,S4 7BU,53.40325165,-1.467465997,Sheffield Health and Social Care NHS Foundation Trust,
Ulverston Community Hospital,Stanley Street,,,Ulverston,Cumbria,LA12 7BT,54.19888687,-3.097817898,Pds Medical Ltd,
Feilding Palmer Hospital,Gilmorton Road,,,Lutterworth,Leicestershire,LE17 4DZ,52.45785522,-1.197785735,Leicestershire Partnership NHS Trust,
Cedar House Hospital,Cedar House,Dover Road,Barham,Canterbury,Kent,CT4 6PW,51.20186996,1.176016331,The Huntercombe Group,http://www.huntercombe.com
The Huntercombe Hospital - Norwich,Buxton,,,Norwich,Norfolk,NR10 5RH,52.76084518,1.280136585,The Huntercombe Group,http://www.huntercombe.com
Hertfordshire Eye Hospital HQ,Potters Bar Hospital,Barnet Road,,Potters Bar,Hertfordshire,EN6 2RY,51.68718338,-0.177504808,Hertfordshire Eye Hospital,
Hartington Unit,Hartington Unit,Chesterfield Royal Hospital,Calow,Chesterfield,Derbyshire,S44 5BL,53.23583603,-1.3960042,Derbyshire Healthcare NHS Foundation Trust,http://www.derbyshirehealthcareft.nhs.uk/
Halstead Hospital,78 Hedingham Road,,,Halstead,Essex,CO9 2DL,51.94809341,0.637966037,Provide,
Airedale Centre for Mental Health,,,,Bradford,,BD20 6TA,53.89620972,-1.959500909,Bradford District NHS Foundation Trust,
Scarborough Hospital,,Woodlands Drive,,Scarborough,,YO12 6QL,54.28170776,-0.43473798,York Teaching Hospital NHS Foundation Trust,http://www.york.nhs.uk
Bridlington & District Hospital,,Bessingby Road,,Bridlington,,YO16 4QP,54.08653259,-0.215725005,York Teaching Hospital NHS Foundation Trust,http://www.york.nhs.uk/
Wellington Hospital,Wellington South,Wellington Place,,London,,NW8 9LE,51.53155136,-0.171457693,Hca International,
Broadoak Unit,Broadoak Unit,Thomas Drive,,Liverpool,,L14 3PJ,53.41078949,-2.895334244,Mersey Care NHS Foundation Trust,http://www.merseycare.nhs.uk
Windsor House,Windsor House,Upper Parliament Street,,Liverpool,,L8 7LF,53.39556885,-2.969381332,Mersey Care NHS Foundation Trust,http://www.merseycare.nhs.uk
Mossley Hill Hospital,Mossley Hill Hospital,Park Avenue,,Liverpool,,L18 8BU,53.38040924,-2.925530195,Mersey Care NHS Foundation Trust,http://www.merseycare.nhs.uk
Boothroyd Unit,Boothroyd Unit,Scarisbrick New Road,,Southport,,PR8 6PH,53.63837051,-2.986073256,Mersey Care NHS Foundation Trust,http://www.merseycare.nhs.uk
Teddington Memorial Hospital,Teddington Memorial Hospital,Hampton Road,,Teddington,Middlesex,TW11 0JL,51.42583847,-0.34098497,Hounslow and Richmond Community Healthcare NHS Trust,http://www.hrch.nhs.uk/our-services/clinics-health-centres/teddington-memorial-hospital/
Tetbury Hospital Trust,Malmesbury Road,,,Tetbury,Gloucestershire,GL8 8XB,51.63517761,-2.154729366,Tetbury Hospital Trust Ltd,
Aire Court ,,Lingwell Grove ,,,,LS10 4BS,53.74658966,-1.53905952,Leeds and York Partnership NHS Foundation Trust,http://www.leedsandyorkpft.nhs.uk/
Parklands Hospital,,Aldermaston Road,,,,RG24 9RH,51.28273773,-1.112343669,Southern Health NHS Foundation Trust,
Fordingbridge Hospital,,Bartons Road,,Fordingbridge,,SP6 1JD,50.92808151,-1.793190479,Southern Health NHS Foundation Trust,http://www.southernhealth.nhs.uk/services/community-health-services/hospitals/fordingbridge/
"St Charles Hospital, Mental Health Unit",,Exmoor Street,,,,W10 6DZ,51.52236176,-0.217203587,Central and North West London NHS Foundation Trust,
Potters Bar Community Hospital,,Oakmere Ward,,Potters Bar,Hertfordshire,EN6 2RY,51.68718338,-0.177504808,Hertfordshire Community NHS Trust,
Cirencester Hospital,,Tetbury Road,,,,GL7 1UY,51.71238708,-1.975448966,Gloucestershire Care Services NHS Trust,
Vale Community Hospital,,Lister Road,,,,GL11 4BA,51.68775177,-2.353378296,Gloucestershire Care Services NHS Trust,
Tewkesbury Community Hospital,,Barton Road,Tewkesbury,Gloucestershire,,GL20 5QN,51.99226761,-2.153090239,Gloucestershire Care Services NHS Trust,http://www.glos-care.nhs.uk
Dilke Memorial Hospital,,Speech House Road,,,,GL14 3HX,51.81121063,-2.519848824,Gloucestershire Care Services NHS Trust,
Lydney & District Hospital,,Grove Road,,Lydney,Gloucestershire,GL15 5JE,51.72731781,-2.536882162,Gloucestershire Care Services NHS Trust,http://www.glos-care.nhs.uk
Fairford Hospital,,The Croft,,,,GL7 4BB,51.70811462,-1.778166652,Gloucestershire Care Services NHS Trust,
Stroud General Hospital,,Trinity Road,,,,GL5 2HY,51.74302673,-2.208121777,Gloucestershire Care Services NHS Trust,
West Berkshire Community Hospital,,London Road,Benham Hill,Thatcham,Berkshire,RG18 3AS,51.40637589,-1.291764498,Berkshire Healthcare NHS Foundation Trust,
The Manor Hospital,Central Drive,Shirebrook,,Mansfield,Nottinghamshire,NG20 8BA,53.20175934,-1.218161106,Cambian Healthcare Limited,
Emersons Green NHS Treatment Centre,The Brooms,Emersons Green,,Bristol,Avon,BS16 7FH,51.50328445,-2.484394789,Care UK,
Peninsula NHS Treatment Centre,20 Brest Road,Derriford,,Plymouth,Devon,PL6 5XP,50.41239166,-4.11767292,Care UK,http://www.peninsulatreatmentcentre.nhs.uk/
KIMS Hospital,Newnham Court Way,Weavering,,Maidstone,Kent,ME14 5FT,51.28607178,0.556916654,Kent Institute Of Medicine And Surgery,http://www.kims.org.uk
Meadowfield,,Swandean,Arundel Road,Worthing,West Sussex,BN13 3EF,50.84244537,-0.411901087,Sussex Partnership NHS Foundation Trust,http://www.sussexpartnership.nhs.uk/location-meadowfield-hospital
Chalkhill,,Princess Royal Hospital,Lewes Road,Haywards Heath,West Sussex,RH16 4NQ,50.99113846,-0.093586311,Sussex Partnership NHS Foundation Trust,http://www.sussexpartnership.nhs.uk/location-chalkhill
Aldeburgh Community Hospital,Park Road,Park Road,,Aldeburgh,Suffolk,IP15 5ES,52.15225983,1.595557809,Suffolk Community Healthcare,
Bluebird Lodge,100 Mansbrook Boulevard,,,Ipswich,Suffolk,IP3 9GJ,52.0272522,1.198411107,Suffolk Community Healthcare,
Newmarket Community Hospital,56 Exning Road,,,Newmarket,Suffolk,CB8 7JG,52.25089264,0.400008351,Suffolk Community Healthcare,
Edith Shaw Hospital,5 Hugo Street,,,Leek,Staffordshire,ST13 5PE,53.1026535,-2.028098822,John Munroe Hospital,
Erith and District Hospital,Outpatients/Urgent Care Centre,Park Crescent,,Erith,Kent,DA8 3EE,51.47711182,0.166657731,Dartford and Gravesham NHS Trust,http://www.dvh.nhs.uk/about-us/eh/
Melton Mowbray Hospital,,Thorpe Road,Melton Mowbray,Leicestershire,,LE13 1SJ,52.76593781,-0.877281189,Leicestershire Partnership NHS Trust,http://www.leicspart.nhs.uk/_OurServices-CommunityHospitals-MeltonMowbrayHospital.aspx
Humber Centre for Forensic Psychiatry,,Willerby Hill,,,,HU10 6ED,53.77197266,-0.444462657,Humber NHS Foundation Trust,http://www.humber.nhs.uk
Penn Hospital,Penn Hospital,Penn Road,Penn,Wolverhampton,,WV4 5HN,52.55867386,-2.159173012,Black Country Partnership NHS Foundation Trust,http://www.bcpft.nhs.uk
Intensive Support Service ,,32 Firshill Rise,,Sheffield,,S4 7BU,53.40325165,-1.467465997,Sheffield Health and Social Care NHS Foundation Trust,
Michael Carlisle Centre,,75 Osborne Road,,,,S11 9BF,53.36141205,-1.49758935,Sheffield Health and Social Care NHS Foundation Trust,
Peasley Cross Hospital,,"Marshalls Cross Road, Peasley Cross",,,,WA9 3DA,53.43953323,-2.718886852,North West Boroughs Healthcare NHS Foundation Trust,
Irwell Unit,,Fairfield General Hospital,,,,BL9 7TD,53.60042572,-2.255607843,Pennine Care NHS Foundation Trust,
Wolfson House,,311-315 Green Lane,,London,,N4 2ES,51.56882095,-0.0949286,East London NHS Foundation Trust,
The Lodge,,1 Crozier Terrace,,London,,E9 6AT,51.54837799,-0.04018094,East London NHS Foundation Trust,
Child & Family Service,,Fairfield General Hospital,,,,BL9 7TD,53.60042572,-2.255607843,Pennine Care NHS Foundation Trust,
Foscote Court (Banbury) Trust,Foscote Hospital,2 Foscote Rise,,Banbury,Oxfordshire,OX16 9XP,52.05334091,-1.330979109,Foscote Court (Banbury) Trust Ltd,http://www.thefoscotehospital.co.uk/
The George Bryan Centre ,,Plantation Lane,Mile Oak,Tamworth,,B78 3NG,52.6206665,-1.723852634,South Staffordshire and Shropshire Healthcare NHS Foundation Trust,
Bigfoot Independent Hospital,4 Birch Hall Lane,Longsight,,Manchester,Greater Manchester,M13 0XE,53.45463181,-2.205939293,Equilibrium Healthcare,
Jigsaw Independent Hospital,134 Palatine Road,Didsbury,,Manchester,Greater Manchester,M20 3ZA,53.42396545,-2.238912106,Equilibrium Healthcare,
Hampden House,,Elmside Walk,,Hitchin,Hertfordshire,SG5 1HB,51.95079422,-0.280340463,Hertfordshire Partnership University NHS Foundation Trust,
Olive Eden Hospital,71 St. Pauls Road,,,London,Greater London,N17 0ND,51.60136414,-0.06148101,Curocare Ltd Head Office,
Bloomfield Court Hospital,69 Bloomfield Road,Woolwich,Greenwich,London,Greater London,SE18 7JN,51.48410797,0.070630968,Curocare Ltd Head Office,
Northampton General Hospital (Acute),,Cliftonville,,,,NN1 5BD,52.23605347,-0.883829474,Northampton General Hospital NHS Trust,
Caludon Centre,,Clifford Bridge Road,,,,CV2 2TE,52.42244339,-1.445519686,Coventry and Warwickshire Partnership NHS Trust,
Spire St Anthony's Hospital,801 London Road,Cheam,,Sutton,Surrey,SM3 9DW,51.37992096,-0.220803648,Spire Healthcare,https://www.spirehealthcare.com/spire-st-anthonys-hospital/
Newtown Centre,Newtown Centre,Nursery Road,,Huntingdon,Cambridgeshire,PE29 3RJ,52.33171082,-0.179012999,Cambridgeshire and Peterborough NHS Foundation Trust,http://www.cpft.nhs.uk
Princess of Wales Hospital - Cambridgeshire and Peterborough NHS Foundation Trust,New Cottages Day Hospital,Princess of Wales Hospital,Lynn Road,Ely,Cambridgeshire,CB6 1DN,52.41328049,0.274972767,Cambridgeshire and Peterborough NHS Foundation Trust,http://www.cpft.nhs.uk/services/new-cottages-day-therapy.htm
Union House,Union House,37 Union Lane,Chesterton,Cambridge,Cambridgeshire,CB4 1PX,52.21938705,0.135905281,Cambridgeshire and Peterborough NHS Foundation Trust,http://www.cpft.nhs.uk
St Margaret's Hospital,,The Plain,,,,CM16 6TN,51.70429611,0.123944759,The Princess Alexandra Hospital NHS Trust,
Francis Willis Unit,,Greetwell Road,,Lincoln,Lincolnshire,LN2 5UA,53.23244095,-0.516408205,Lincolnshire Partnership NHS Foundation Trust,
Ashley House,,Beacon Lane,,Grantham,Lincolnshire,NG31 9DF,52.91190338,-0.630785048,Lincolnshire Partnership NHS Foundation Trust,
Stafford General Infirmary,Ground Floor South Wing,Madford Retail Park,Foregate Street,Stafford,Staffordshire,ST16 2PA,52.81060791,-2.120675087,Brewood Medical Services Ltd,
Rotherham Adult Mental Health Service - Access Team  including Crisis Resolution Service,,142a Aughton Road,Swallownest,Sheffield,South Yorkshire,S26 4TH,53.36781693,-1.321964502,Rotherham Doncaster and South Humber NHS Foundation Trust,http://www.rdash.nhs.uk/services/our-services/adult-mental-health-services/rotherham-mental-health-h
North Lincs Adult Mental Health Service - Access Team  including Crisis Resolution Service,Great Oaks,Ashby High Street,,Scunthorpe,Lincolnshire,DN16 2JX,53.56698608,-0.638559699,Rotherham Doncaster and South Humber NHS Foundation Trust,
Doncaster Adult Mental Health Service - Access Team including Crisis Resolution Service,Opal Centre,Tickhill Road Site,Weston Road,"Balby, Doncaster",South Yorkshire,DN4 8QN,53.49616241,-1.144652247,Rotherham Doncaster and South Humber NHS Foundation Trust,
Wotton Lawn Hospital,,Horton Road,,,,GL1 3PX,51.86597061,-2.225782633,2gether NHS Foundation Trust,
Hollybrook,,Berkeley Close,,,,GL5 4UL,51.74895096,-2.25335741,2gether NHS Foundation Trust,
Charlton Lane Hospital,,Charlton Lane,,,,GL53 9DZ,51.88033676,-2.07402873,2gether NHS Foundation Trust,
Honeybourne,,Swindon Road,,,,GL51 9EZ,51.90737534,-2.082446098,2gether NHS Foundation Trust,
Oak House,,Barton Street,,,,HR4 0AY,52.05363846,-2.722952366,2gether NHS Foundation Trust,
Westridge,,Horsemarling Lane,,,,GL10 3HA,51.75749969,-2.267139912,2gether NHS Foundation Trust,
Stonebow Unit,,Stonebow Road,,,,HR1 2ER,52.05701828,-2.705694675,2gether NHS Foundation Trust,
"Wedgwood House, Bury St Edmunds",,West Suffolk Hospital,Hardwicke Lane,Bury St Edmunds,Suffolk,IP33 2QZ,52.23166275,0.70919019,Norfolk and Suffolk NHS Foundation Trust,http://www.nsft.nhs.uk
Baddow Hospital,West Hanningfield Road,Great Baddow,,Chelmsford,Essex,CM2 8HN,51.70816803,0.501718879,Baddow Hospital Ltd,
Dudley Urgent Care Centre,Russells Hall Hospital,Pensnett Road,,Dudley,West Midlands,DY1 2HQ,52.50294876,-2.118503094,Malling Health UK Limited,
"Airey Close, Lowestoft",,Lothingland,,Oulton,Suffolk,NR32 3JQ,52.49748993,1.718628645,Norfolk and Suffolk NHS Foundation Trust,http://www.nsft.nhs.uk
"Walker Close, Ipswich",,3 and 4 Walker Close,,Ipswich,Suffolk,IP3 8LY,52.05271912,1.196875691,Norfolk and Suffolk NHS Foundation Trust,http://www.nsft.nhs.uk
"1b St Catherines Way, Gorleston",Stepping Out,1B St Catherines Way,,Gorleston on Sea,Norfolk,NR31 7QB,52.57298279,1.716900468,Norfolk and Suffolk NHS Foundation Trust,http://www.nsft.nhs.uk
Royal Shrewsbury Hospital,Royal Shrewsbury Hospital,Mytton Oak Road,,Shrewsbury,Shropshire,SY3 8XQ,52.70936203,-2.793737411,Ip&E Limited,
Cygnet Hospital Taunton,Orchard Portman,,,Taunton,Somerset,TA3 7BQ,50.98910904,-3.077581644,Cygnet Health Care Limited,
Coalville Community Hospital,,Broom Leys Road,,,,LE67 4DE,52.72288513,-1.349832773,Leicestershire Partnership NHS Trust,
St Oswalds Hospital - Derbyshire Health United Ltd,Clifton Road,,,Ashbourne,Derbyshire,DE6 1DR,53.01286316,-1.737574458,Derbyshire Health United Ltd,
"The Retreat, Strensall",Charles Court,Northfields,Strensall,York,North Yorkshire,YO32 5XP,54.04141998,-1.028527021,The Retreat Hospital,
Langdon Hospital,,Exeter Road,,Dawlish,Devon,EX7 0NR,50.59967422,-3.468164444,Devon Partnership NHS Trust,http://www.dpt.nhs.uk
Pds Medical - Pall Mall Hospital,St. Pauls Square,,,Liverpool,Merseyside,L3 9SJ,53.41016388,-2.993723631,Pds Medical Ltd,
Pds Medical - Pall Mall Hospital,1 Belvedere Road,,,Newton-Le-Willows,Merseyside,WA12 0JJ,53.45717621,-2.638371706,Pds Medical Ltd,
The Huntercombe Hospital Cotswold Spa,,Station Road,,Broadway,Worcestershire,WR12 7DE,52.04019547,-1.869601965,The Huntercombe Group,http://www.huntercombe.com
Mount Edgcumbe Hospice,Porthpean Road,,,St. Austell,Cornwall,PL26 6AB,50.32857513,-4.772080898,Cornwall Hospice Care Limited,
St Julia's Hospice,Foundry Hill,,,Hayle,Cornwall,TR27 4HW,50.18145752,-5.423200607,Cornwall Hospice Care Limited,
Park Lodge,34 Sandy Lane,Romiley,,Stockport,Cheshire,SK6 4NH,53.41864777,-2.082670927,Partnerships In Care Ltd,
Park Villa,268 Park Lane,,,Macclesfield,Cheshire,SK11 8AE,53.25304794,-2.134898901,Partnerships In Care Ltd,
Rhodes Farm,The Ridgeway,Mill Hill,,London,Greater London,NW7 1RH,51.61768723,-0.222455218,Partnerships In Care Ltd,
The Harbour,,Windmill Rise,,Blackpool,,FY4 4FE,53.79953384,-2.987885952,Lancashire Care NHS Foundation Trust,
The Wilmslow Hospital,52-54 Alderley Road,,,Wilmslow,Cheshire,SK9 1NY,53.32465744,-2.234813213,Manchester Surgical Services Ltd,
Beverley House,527 - 529 City Road,Edgbaston,,Birmingham,West Midlands,B17 8LL,52.47527695,-1.960809231,Partnerships In Care Ltd,
Community Health And Eyecare Limited (First Trust Hospital),D'urton Lane,,,Preston,Lancashire,PR3 5LD,53.80301666,-2.711092472,Community Health And Eyecare Limited,
Springview ,Springview,Clatterbridge Health Park,,Wirral,Cheshire,CH63 4JY,53.33288956,-3.024122,Cheshire and Wirral Partnership NHS Foundation Trust,http://www.cwp.nhs.uk/locations/1112-springview-hospital-clatterbridge-health-park-wirral
St Leonard's,St Leonard's Hospital,Nuttall Street,,London,,N1 5LZ,51.53392029,-0.077771641,Homerton University Hospital NHS Foundation Trust,http://www.homerton.nhs.uk/our-services/services-a-z/s/st-leonards-hospital/?from=1093
East Surrey Hospital,,Canada Avenue,,Redhill,,RH1 5RH,51.2191925,-0.161995023,Surrey and Sussex Healthcare NHS Trust,
Cygnet Hospital Bury,Buller Street,,,Bury,Lancashire,BL8 2BS,53.58713913,-2.316722631,Cygnet Health Care Limited,https://www.cygnethealth.co.uk/locations/cygnet-hospital-bury/
Cygnet Hospital Sheffield,83 East Bank Road,,,Sheffield,South Yorkshire,S2 3PX,53.36828613,-1.459696174,Cygnet Health Care Limited,
Cygnet Hospital Woking,Redding Way,Knaphill,,Woking,Surrey,GU21 2QS,51.31477737,-0.61519134,Cygnet Health Care Limited,https://www.cygnethealth.co.uk/locations/cygnet-hospital-woking/
Bootham Park Hospital,,,Bootham,York,,YO30 7BY,53.9680748,-1.085584641,"Tees, Esk and Wear Valleys NHS Foundation Trust",
Spamedica Eye Hospital (Wakefield),Unit 10 Silkwood Park,Fryers Way,,Ossett,West Yorkshire,WF5 9TJ,53.682827,-1.548219204,Spamedica,
Mya St Lukes Hospital,14 Fitzroy Square,,,London,Greater London,W1T 5HP,51.52371216,-0.139668778,Mya Cosmetic Surgery Limited,
The New Victoria Hospital,184 Coombe Lane West,,,Kingston Upon Thames,Surrey,KT2 7EG,51.41569519,-0.254274994,The New Victoria Hospital Limited,
London Welbeck Hospital,27 Welbeck Street,,,London,Greater London,W1G 8EN,51.51823807,-0.149448082,Welbeck Healthcare Limited,
Mundesley Hospital - Gimingham,Cook's Hill,Gimingham,Mundesley,Norwich,Norfolk,NR11 8ET,52.87729645,1.413495302,Mundesley Hospital,
Benjamin Court Hospital,Benjamin Court,Roughton Road,,Cromer,Norfolk,NR27 0EU,52.92454529,1.30082655,The Integrated Care Clinics Ltd,
Arbour Lodge Independent Hospital,Buxton Lane,Marple,,Stockport,Cheshire,SK6 7QL,53.38997269,-2.072225094,Barchester Healthcare Ltd,
Billingham Grange Independent Hospital,High Grange Avenue,,,Billingham,Cleveland,TS23 3TY,54.61868286,-1.291753888,Barchester Healthcare Ltd,
Forest Independent Hospital,Southwell Road West,,,Mansfield,Nottinghamshire,NG18 4XX,53.1361084,-1.168948889,Barchester Healthcare Ltd,
South View - Hazeldene Independent Hospital,West Avenue,,,Billingham,Cleveland,TS23 1DA,54.59230423,-1.292985201,Barchester Healthcare Ltd,
Windermere House Independent Hospital,Birkdale Way,Newbridge Road,,Hull,Yorkshire(East Riding),HU9 2BH,53.74993896,-0.308325261,Barchester Healthcare Ltd,
Jasmine Court Independent Hospital,Paternoster Hill,,,Waltham Abbey,Essex,EN9 3JY,51.69111252,0.019816931,Barchester Healthcare Ltd,
Castle Lodge Independent Hospital,Noddle Hill Way,Bransholme,,Hull,Yorkshire(East Riding),HU7 4FG,53.78862,-0.307072937,Barchester Healthcare Ltd,
Highfield Hospital,Highfield Road,,,Widnes,Cheshire,WA8 7DJ,53.37405777,-2.735519886,Platform 7 Limited,
"Rye, Winchelsea & District Memorial Hospital",Peasmarsh Road,Rye Foreign,,Rye,East Sussex,TN31 7UD,50.9618988,0.731182933,Medical Imaging Partnership Ltd,
Gravesham Community Hospital - Virgin Care Adult Community Services,Bath Street,,,Gravesend,Kent,DA11 0DG,51.4431839,0.365658641,Virgin Care Services Ltd,
Livingstone Community Hospital - Virgin Care Adult Community Services,East Hill,,,Dartford,Kent,DA1 1SA,51.44222641,0.226812378,Virgin Care Services Ltd,
"Peddars Centre, Hellesdon Hospital",,Drayton High Road,,,,NR6 5BE,52.65953064,1.250886321,Norfolk and Suffolk NHS Foundation Trust,
"Foxhall House, Ipswich",,St Clements Hospital,,,,IP3 8LS,52.0506134,1.192611337,Norfolk and Suffolk NHS Foundation Trust,
Finchley Memorial Hospital,Granville Road,,,London,Greater London,N12 0JE,51.60545731,-0.176605821,Concordia Community Outpatients Ltd,
Spire Nottingham Hospital,Spire Nottingham Hospital,Tollerton Lane,Tollerton,Nottingham,Nottinghamshire,NG12 4GA,52.91842651,-1.086676002,Spire Healthcare,https://www.spirehealthcare.com/spire-nottingham-hospital/
Scarsdale Hospital,,"Nightingale Close, Off Newbold Road",,Chesterfield,Derbyshire,S41 7PF,53.23900986,-1.430908442,Derbyshire Community Health Services NHS Foundation Trust,
Riverside Hospital,Unit 3,Brentside Executive Centre,Great West Road,Brentford,Middlesex,TW8 9DR,51.48600769,-0.315944403,Tfhc Limited,
Ancora House,,Countess of Chester Healthpark,Liverpool Road,Chester,Cheshire,CH2 1BQ,53.21154785,-2.898810625,Cheshire and Wirral Partnership NHS Foundation Trust,http://www.mymind.org.uk/
Kneesworth House Hospital,Old North Road,Bassingbourn,,Royston,Hertfordshire,SG8 5JP,52.07812119,-0.030604055,Priory Group Limited,
Stockton Hall Hospital,Stockton Hall,The Village,Stockton On The Forest,York,North Yorkshire,YO32 9UN,53.99541855,-1.002506495,Priory Group Limited,
Exeter Community Hospital,,Hospital Lane,,,,EX1 3RB,50.73098373,-3.484140635,Royal Devon and Exeter NHS Foundation Trust,
Croydon Day Hospital,"Level 9, Interchange",81-85 Wellesley Road,,Croydon,Surrey,CR0 2RD,51.38014221,-0.10036391,Ramsay Healthcare UK Operations Limited,http://www.croydondayhospital.co.uk
Cygnet Hospital Coventry,Lansdowne Street,,,Coventry,West Midlands,CV2 4FN,52.40960693,-1.491767645,Cygnet Health Care Limited,
Thurrock Community Hospital,,Long Lane,,,,RM16 2PX,51.49625397,0.336003095,Essex Partnership University NHS Foundation Trust,
Biggleswade Hospital,,Potton Road,,,,SG18 0EL,52.10031128,-0.246869564,Essex Partnership University NHS Foundation Trust,
Cannock Hospital,Brunswick Road,,,Cannock,Staffordshire,WS11 5XY,52.69324493,-2.030599594,Healthharmonie Limited,
West Berkshire Community Hospital,London Road,,,Thatcham,Berkshire,RG18 3AS,51.40637589,-1.291764498,Healthharmonie Limited,
St Lukes Hospice (Harrow),Kenton Grange,Kenton Road,,Harrow,Middlesex,HA3 0YG,51.58633804,-0.300530732,St Lukes Hospice (Harrow),
Tees Valley Hospital,Church Lane,Acklam,,Middlesbrough,Cleveland,TS5 7DX,54.5464325,-1.250988483,Ramsay Healthcare UK Operations Limited,
Cobham Community Hospital,170 Portsmouth Road,,,Cobham,Surrey,KT11 1HS,51.3354454,-0.408205032,Surrey Healthy Children And Families LLP,
Ashford & St Peters Hospital,Guildford Road,,,Chertsey,Surrey,KT16 0PZ,51.37783432,-0.527046025,Surrey Healthy Children And Families LLP,
Woking Community Hospital,Heathside Road,,,Woking,Surrey,GU22 7HS,51.31513214,-0.556289494,Central Surrey Health,
Walton Community Hospital,Rodney Road,,,Walton-On-Thames,Surrey,KT12 3LD,51.37999725,-0.406042069,Central Surrey Health,
Manchester Private Hospital,New Court,Regents Place,Windsor Street,Salford,Greater Manchester,M5 4HB,53.47900391,-2.278548241,Manchester Private Clinic Ltd,
Onemedicalgroup (St James's Hospital),St. James's University Hospital,Beckett Street,,Leeds,West Yorkshire,LS9 7TF,53.80687332,-1.520343781,One Medical Group Limited,
Devizes Community Hospital,New Park Road,,,Devizes,Wiltshire,SN10 1EF,51.35458374,-1.993215919,Virgin Care Ltd,
Shepton Mallet Community Hospital,Old Wells Road,,,Shepton Mallet,Somerset,BA4 4PG,51.19057846,-2.562471867,Virgin Care Ltd,
Chippenham Community Hospital,Rowden Hill,,,Chippenham,Wiltshire,SN15 2AJ,51.45254135,-2.126694918,Virgin Care Ltd,
Melksham Community Hospital,Spa Road,,,Melksham,Wiltshire,SN12 7NZ,51.36713409,-2.131529331,Virgin Care Ltd,
Warminster Community Hospital,The Avenue,,,Warminster,Wiltshire,BA12 8QS,51.206707,-2.181701183,Virgin Care Ltd,
The Wilmslow Hospital,52 Alderley Road,,,Wilmslow,Cheshire,SK9 1NY,53.32465744,-2.234813213,Mediscan Diagnostics Services Limited,
InHealth - BMI Sandringham Hospital,Gayton Road,Gaywood,,King's Lynn,Norfolk,PE30 4HJ,52.75780869,0.447738707,Inhealth Group Limited,
One Hatfield Hospital,3 Hatfield Avenue,,,Hatfield,Hertfordshire,AL10 9UA,51.77027893,-0.235120028,One Healthcare,
InHealth - Spire Bushey Hospital,Heathbourne Road,Bushey Heath,,Bushey,Hertfordshire,WD23 1RD,51.63734055,-0.331717819,Inhealth Group Limited,
Royal London Hospital,Whitechapel,,,London,Greater London,E1 1BB,51.51901627,-0.058118623,Tower Hamlets Gp Care Group CIC,
